id,store,address,city,state,zip,country,phone,latitude,longitude
1078,COLONIAL PROMENADE ALABASTER,200 S. COLONIAL DRIVE,ALABASTER,AL,35007,US,205-564-2648,33.225937,-86.804886
330,BROOK HIGHLAND PLAZA,5201 HIGHWAY 280 SOUTH,BIRMINGHAM,AL,35242,US,205-981-1320,33.4191,-86.6857
1161,CULLMAN SHOPPING CENTER,1106 CULLMAN SHOPPING CENTER NW,CULLMAN,AL,35055,US,256-841-3534,34.181521,-86.848964
617,JUBILEE SQUARE,6850 US HIGHWAY 90,DAPHNE,AL,36526,US,251-621-0031,30.6537,-87.9069
337,DOTHAN PAVILION,4401 MONTGOMERY HWY,DOTHAN,AL,36303,US,334-671-1370,31.2649,-85.4439
4626,COX CREEK SHOPPING CENTER,"376 COX CREEK PARKWAY, SUITE A",FLORENCE,AL,35630,US,256-760-4211,34.84239399,-87.63466944
451,PATTON CREEK,4401 CREEKSIDE AVENUE,HOOVER,AL,35244,US,205-909-1400,33.3745,-86.8179
778,WESTSIDE PAVILLION,2718 CARL T. JONES DRIVE,HUNTSVILLE,AL,35802,US,256-881-3212,34.6764,-86.5482
1207,BRIDGE STREET TOWN CENTRE,6890-A GOVERNOR&#39;S DRIVE WEST,HUNTSVILLE,AL,35806,US,(256) 801-3766,34.714167,-86.676833
4609,MCGOWIN PARK,1390 TINGLE CIRCLE W B-3 SUITE A,MOBILE,AL,36606,US,251-450-1334,30.650119,-88.119356
338,EAST CHASE,7861 EASTCHASE PARKWAY,MONTGOMERY,AL,36117,US,334-277-8180,32.3631,-86.1542
702,TIGER TOWN,2718 ENTERPRISE DRIVE,OPELIKA,AL,36801,US,334-749-8123,32.6162,-85.4103
385,OXFORD EXCHANGE,1500 OXFORD EXCHANGE,OXFORD,AL,36203,US,256-831-7739,33.6093,-85.7801
1143,SHOPPES AT LEGACY PARK,"1320 MCFARLAND BLVD E, BLDG 400, SUITE 410",TUSCALOOSA,AL,35404,US,205-535-3006,33.198974,-87.527396
608,CONWAY COMMONS,620 ELSINGER BOULEVARD,CONWAY,AR,72032,US,501-336-0700,35.068,-92.4143
629,FORT SMITH PAVILION,3825 PHOENIX AVENUE,FORT SMITH,AR,72903,US,479-646-8900,35.3401,-94.3906
662,FAIRGROUND CROSSING,1420 HIGDON FERRY ROAD,HOT SPRINGS,AR,71913,US,501-624-0200,34.4696,-93.0723
1337,MCCAIN PLAZA,4188 E McCain Blvd,NORTH LITTLE ROCK,AR,72117,US,501-478-2126,34.78641062,-92.22325336
363,SAN TAN VILLAGE,2269 SAN TAN VILLAGE PARKWAY,GILBERT,AZ,85295,US,480-899-3993,33.309,-111.745
364,ARROWHEAD TOWNE CENTER,7680 WEST ARROWHEAD TOWNE CENTER,GLENDALE,AZ,85308,US,623-334-8366,33.6426,-112.224
726,ORO VALLEY MARKETPLACE,11935 NORTH ORACLE ROAD,ORO VALLEY,AZ,85737,US,520-742-0792,32.4227,-110.938
365,THE SHOPS AT NORTERRA,2350 WEST HAPPY VALLEY ROAD,PHOENIX,AZ,85085,US,623-434-3388,33.7147,-112.11
1410,E MAYO BLVD,7000 E MAYO BLVD,PHOENIX,AZ,85054,US,480-212-0260,33.658025,-111.931099
1131,PRESCOTT VALLEY CROSSROADS,5715 E. STATE ROUTE 69,PRESCOTT VALLEY,AZ,86314,US,928-776-0499,34.5751499918336,-112.362517410759
1194,SCOTTSDALE FASHION CENTER,"7014 E CAMELBACK ROAD, SUITE ANC 03",SCOTTSDALE,AZ,85251,US,480-240-4409,33.504507,-111.927584
362,EMERALD CENTER,8550 SOUTH EMERALD DRIVE,TEMPE,AZ,85284,US,480-592-0938,33.3368,-111.971
1217,WILMOT PLAZA,6327 E. BROADWAY BLVD,TUCSON,AZ,85710,US,520-203-0016,32.222244,-110.856347
697,NORTHWEST PROMENADE,9300 ROSEDALE HWY,BAKERSFIELD,CA,93312,US,661-588-8100,35.386,-119.106
1195,LOS CERRITOS CENTER,"435 LOS CERRITOS CENTER, SPACE F17",CERRITOS,CA,90703,US,562-376-9087,33.8608,-118.094
1089,CHICO MALL,1922 E 20TH STREET,CHICO,CA,95928,US,530-343-3351,39.7288,-121.8078
925,SPECTRUM MARKETPLACE,4044 GRAND AVENUE,CHINO,CA,91710,US,909-590-7626,34.0019,-117.716
1413,TERRA NOVA PLAZA,390 EAST H STREET,CHULA VISTA,CA,91910,US,619-761-5998,32.639456,-117.048107
623,CLOVIS SHOPPING CENTRE,1225 HERNDON AVENUE,CLOVIS,CA,93612,US,559-322-4628,36.8396,-119.694
1092,SERRAMONTE MALL,64 SERRAMONTE CENTER,DALY CITY,CA,94015,US,415-325-4109,37.671793,-122.472257
1071,FALLON GATEWAY,2820 DUBLIN BLVD.,DUBLIN,CA,94568,US,925-479-0680,37.703951,-121.853734
615,PARKWAY PLAZA,565 FLETCHER PARKWAY,EL CAJON,CA,92020,US,619-447-0191,32.8067,-116.968
1400,LAGUNA GATEWAY,8217 LAGUNA BLVD,ELK GROVE,CA,95758,US,916-226-1711,38.424,-121.405
924,PLAZA EL SEGUNDO,770 SOUTH SEPULVEDA BLVD.,EL SEGUNDO,CA,90245,US,310-726-9123,33.9064,-118.392
1412,ENCINITAS RANCH,1050 N. EL CAMINO REAL,ENCINITAS,CA,92024,US,760-452-4046,33.067643,-117.266592
609,ESCONDIDO PROMENADE,1200 AUTO PARK WAY,ESCONDIDO,CA,92029,US,760-233-2700,33.1095,-117.097
1330,SOLANO TOWN CENTER,1451 GATEWAY BOULEVARD,FAIRFIELD,CA,94533,US,707-384-6046,38.25966457,-122.05287
1277,WILLOW CREEK SHOPPING CENTER,1003 E. BIDWELL STREET,FOLSOM,CA,95630,US,916-358-7111,38.669062,-121.156031
1170,PACIFIC COMMONS,43923 PACIFIC COMMONS BLVD,FREMONT,CA,94538,US,510-897-6475,37.5004,-121.97
622,ARBOR FAIRE,3380 WEST SHAW AVENUE,FRESNO,CA,93711,US,559-271-2701,36.81,-119.853
1407,BLACKSTONE,7572 NORTH BLACKSTONE AVENUE,FRESNO,CA,93720,US,559-367-0252,36.846684,-119.786508
1223,GLENDALE GALLERIA,200 WEST BROADWAY,GLENDALE,CA,91210,US,818-476-5960,34.1457,-118.258
1282,SOUTHLAND MALL,549 SOUTHLAND MALL,HAYWARD,CA,94545,US,510-695-2117,37.6513,-122.10358
1025,EDINGER PLAZA,7542 EDINGER AVENUE,HUNTINGTON BEACH,CA,92647,US,714-847-3179,33.7287,-117.997
933,LADERA RANCH,"27502 ANTONIO PARKWAY, #B",LADERA RANCH,CA,92694,US,949-365-1278,33.5634,-117.627
923,LAGUNA HILLS PLAZA SHOPPING CENTER,24821 ALICIA PARKWAY,LAGUNA HILLS,CA,92653,US,949-472-8180,33.6019,-117.693
1297,REYNOLDS RANCH,2760 REYNOLDS RANCH PARKWAY,LODI,CA,95240,US,209-368-2328,38.099,-121.261
1416,THE GREAT MALL OF THE BAY AREA,1200 GREAT MALL DRIVE,MILPITAS,CA,95035,US,408-503-0370,37.414998,-121.898892
624,VINTAGE FAIRE MALL,3401 DALE ROAD,MODESTO,CA,95356,US,209-578-1215,37.6879,-121.053
928,MOORPARK,706 LOS ANGELES AVENUE,MOORPARK,CA,93021,US,805-978-4091,34.2778,-118.871
1262,COCHRANE COMMONS,1007 COCHRANE ROAD,MORGAN HILL,CA,95037,US,408-763-4779,37.155,-121.653
926,MURRIETA,40404 MURRIETA HOT SPRINGS ROAD,MURRIETA,CA,92563,US,951-691-5401,33.5553,-117.176
936,FASHION ISLAND SHOPPING CENTER,435 NEWPORT CENTER DRIVE,NEWPORT BEACH,CA,92660,US,949-640-1107,33.6166,-117.874
1342,PACIFIC COAST PLAZA,2160 VISTA WAY,OCEANSIDE,CA,92054,US,760-400-0308,33.1827128,-117.3435474
1033,ESPLANDE CENTER,231 W. ESPLANDE DRIVE,OXNARD,CA,93036,US,805-973-1260,34.2333,-119.176
1105,ANTELOPE VALLEY MALL,1301 W. RANCHO VISTA BLVD.,PALMDALE,CA,93550,US,661-225-8019,34.60366,-118.15358
1126,WESTFIELD PALM DESERT,"72-840 HIGHWAY 111, A130",PALM DESERT,CA,92260,US,760-340-3526,33.724108,-116.395622
932,HASTINGS VILLAGE,3359 E. FOOTHILL BOULEVARD,PASADENA,CA,91107,US,626-351-1843,34.1528,-118.082
1048,EAST WASHINGTON PLACE,"401 KENILWORTH DRIVE, SUITE 1030",PETALUMA,CA,94952,US,707-763-3750,38.243412,-122.624013
1072,THE CROSSROADS,2314 MONUMENT BLVD,PLEASANT HILL,CA,94523,US,925-222-3508,37.942237,-122.058127
1047,REDDING HILLTOP CENTER,875 BROWNING STREET,REDDING,CA,96003,US,530-221-1399,40.591678,-122.356671
1421,STANFORD RANCH CROSSING,6740 STANFORD RANCH ROAD,ROSEVILLE,CA,95678,US,916-749-1685,38.782771,-121.267982
1232,DELTA SHORES,8214 DELTA SHORES CIRCLE S,SACRAMENTO,CA,95832,US,916-647-0160,38.460713,-121.493328
1070,WESTRIDGE CENTER,1223 N. DAVIS ROAD,SALINAS,CA,93907,US,831-751-9019,36.7006,-121.669
1411,CARMEL MOUNTAIN PLAZA,11690 CARMEL MOUNTAIN ROAD,SAN DIEGO,CA,92128,US,858-304-3029,32.980893,-117.080735
1026,SPORTS ARENA SQUARE,3265 SPORTS ARENA BLVD.,SAN DIEGO,CA,92110,US,619-523-0975,32.7515,-117.211
1409,SUNRISE PLAZA,680 BLOSSOM HILL ROAD,SAN JOSE,CA,95123,US,408-300-5212,37.249665,-121.845936
1010,PREFUMO CREEK COMMONS,11970 LOS OSOS VALLEY ROAD,SAN LUIS OBISPO,CA,93405,US,805-545-0740,35.2534,-120.685
935,SOLEDAD CROSSING,26591 CARL BOYER DRIVE,SANTA CLARITA,CA,91350,US,661-253-9231,34.4172,-118.507
1336,ENOS RANCH,775 E BETTERAVIA ROAD,SANTA MARIA,CA,93454,US,(805) 863-9065,34.92505285,-120.4223373
1049,CODDINGTOWN MALL,1975 CLEVELAND AVENUE,SANTA ROSA,CA,95401,US,707-228-1223,38.455938,-122.72787
1176,SHERWOOD MALL,5354 PACIFIC AVE,STOCKTON,CA,95207,US,209-992-5745,37.999154073813,-121.31191689011
1401,EL CAMINO REAL,125 EAST EL CAMINO REAL,SUNNYVALE,CA,94087,US,408-498-4293,37.366701,-122.029005
1278,THE OAKS MALL,176 WEST HILLCREST DRIVE,THOUSAND OAKS,CA,91360,US,805-367-5032,34.184,-118.888
1295,DEL AMO FASHION CENTER,"21800 HAWTHORNE BOULEVARD, #301",TORRANCE,CA,90503,US,424 206 4240,33.829809,-118.35009
1182,MONTE VISTA CROSSINGS,2711 COUNTRYSIDE DRIVE,TURLOCK,CA,95380,US,209-216-4385,37.5151,-120.881
927,THE MARKET PLACE,2771 EL CAMINO REAL,TUSTIN,CA,92782,US,714-731-1300,33.7271,-117.794
922,COLONIES CROSSROADS,1939 NORTH CAMPUS AVENUE,UPLAND,CA,91784,US,909-946-7192,34.1337,-117.639
1111,THE MALL OF VICTOR VALLEY,14500 BEAR VALLEY ROAD,VICTORVILLE,CA,92392,US,760-245-4151,34.473219,-117.346875
1069,GATEWAY PLAZA,3637 S. MOONEY BLVD.,VISALIA,CA,93277,US,559-636-0633,36.2975,-119.316
921,WESTFIELD EASTLAND SHOPPING CENTER,2753 EASTLAND CENTER DRIVE,WEST COVINA,CA,91791,US,626-331-8227,34.0735,-117.885
929,SAVI RANCH,23081 SAVI RANCH PARKWAY,YORBA LINDA,CA,92887,US,714-685-7802,33.8717,-117.734
728,GARDENS ON HAVANA,1200 S. IRONTON STREET,AURORA,CO,80012,US,303-755-0410,39.6944,-104.863
366,CORNERSTAR,"15400 EAST BRIARWOOD CIRCLE, UNIT A",AURORA,CO,80016,US,303-617-7930,39.5929,-104.809
729,PRAIRIE CENTER,2269 PRAIRIE CENTER PARKWAY,BRIGHTON,CO,80601,US,720-685-1701,39.9552,-104.782
423,FLATIRON CROSSING,31 WEST FLATIRON CROSSING DRIVE,BROOMFIELD,CO,80021,US,720-887-0900,39.9339,-105.133
322,CHAPEL HILLS MALL,1710 BRIAR GATE BLVD,COLORADO SPRINGS,CO,80920,US,719-264-1810,38.9468,-104.796
431,FIRST AND MAIN TOWER CENTER,3133 CINEMA POINT,COLORADO SPRINGS,CO,80922,US,719-638-3400,38.8793,-104.717
1417,COLORADO MILLS MALL,14500 W COLFAX AVENUE,LAKEWOOD,CO,80401,US,303-317-5880,39.730224,-105.161213
466,BELMAR CENTER,7313 WEST ALASKA DRIVE,LAKEWOOD,CO,80226,US,303-600-2600,39.7097,-105.078
436,PARK MEADOWS MALL,8435 PARK MEADOWS CENTER DRIVE,LITTLETON,CO,80124,US,720-479-0600,39.5634,-104.876
298,SOUTHWEST PLAZA,8501 WEST BOWLES AVENUE,LITTLETON,CO,80123,US,720-981-0618,39.6131,-105.095
315,HARVEST JUNCTION,210 KEN PRATT BLVD,LONGMONT,CO,80501,US,303-682-5740,40.1538,-105.097
258,PROMENADE SHOPS AT CENTERRA,5875 SKY POND DRIVE,LOVELAND,CO,80537,US,970-461-9762,40.4157,-104.991
1305,PUEBLO CROSSING,5945 N ELIZABETH STREET,PUEBLO,CO,81008,US,719 696 3096,38.33413,-104.62359
254,LARKRIDGE SHOPPING CENTER,16521 WASHINGTON STREET,THORNTON,CO,80023,US,303-280-6153,39.9959,-104.982
219,SHOPPES AT FARMINGTON VALLEY,110 ALBANY TURNPIKE,CANTON,CT,06019,US,860-693-1619,41.8212,-72.8805
612,DANBURY FAIR MALL,7 BACKUS AVENUE,DANBURY,CT,06810,US,203-730-0164,41.3812,-73.4783
168,STATE LINE PLAZA,130 ELM STREET,ENFIELD,CT,06082,US,860-253-9475,41.9949,-72.5756
1005,LISBON LANDING,"170 RIVER ROAD, SUITE 2",LISBON,CT,06351,US,860-376-4141,41.5814,-71.9914
295,THE PAVILIONS AT BUCKLAND HILLS,179 PAVILLION DRIVE,MANCHESTER,CT,06042,US,860-648-4044,41.8067,-72.5471
169,WESTFIELD SHOPPINGTOWN MERIDEN,470 LEWIS AVENUE,MERIDEN,CT,06451,US,203-686-0462,41.5512,-72.8101
282,WESTFIELD SHOPPINGTON CENTER,1201 BOSTON POST ROAD,MILFORD,CT,06460,US,203-876-0477,41.2343,-73.0382
32,TURNPIKE PLAZA,2985 BERLIN TURNPIKE,NEWINGTON,CT,06111,US,860-666-3877,41.6684,-72.7217
1246,HOME DEPOT PLAZA,411 UNIVERSAL DRIVE NORTH,NORTH HAVEN,CT,06473,US,203-836-2860,41.3513,-72.8718
1402,CONNECTICUT AVE,444 CONNECTICUT AVENUE,NORWALK,CT,06854,US,203-642-2083,41.101071,-73.441518
185,CONNECTICUT COMMONS,280 NEW BRITAIN AVENUE,PLAINVILLE,CT,06062,US,860-747-2102,41.6732,-72.84
153,WATERFORD COMMONS,"915 HARTFORD TURNPIKE, #A1",WATERFORD,CT,06385,US,860-447-2886,41.3829,-72.1522
1276,THE SHOPS AT DAKOTA CROSSING,2470 MARKET STREET NE,WASHINGTON,DC,20018,US,202-971-8214,38.921,-76.955
763,DOVER MALL,"1365 N DUPONT HIGHWAY, SUITE 6000",DOVER,DE,19901,US,302-678-9160,39.1930728788528,-75.5391347019113
34,CHRISTIANA CENTER,100 CENTER DRIVE,NEWARK,DE,19702,US,302-738-8322,39.6744,-75.6525
33,BRANDYWINE TOWNE CENTER,1000 BRANDYWINE PARKWAY,WILMINGTON,DE,19803,US,302-477-9577,39.8312,-75.5406
1404,AVENTURA,18499 BISCAYNE BOULEVARD,AVENTURA,FL,33160,US,305-907-5429,25.946539,-80.146244
1289,MISSION BAY PLAZA,20429 SOUTH STATE ROAD 7,BOCA RATON,FL,33498,US,561-288-4044,26.371,-80.207
684,BOYNTON FESTIVE CENTER,515 N. CONGRESS AVE,BOYNTON BEACH,FL,33426,US,561-734-7771,26.5323,-80.0929
334,CENTRE POINT COMMONS,4108 14TH STREET WEST,BRADENTON,FL,34205,US,941-751-6900,27.4643,-82.5781
287,BRANDON TOWN CENTER,901 BRANDON TOWNE CENTER MALL,BRANDON,FL,33511,US,813-684-3100,27.9328,-82.3274
1186,CORTEZ COMMONS,12936 CORTEZ BLVD,BROOKSVILLE,FL,34613,US,352-200-5716,28.531397,-82.514107
637,COUNTRYSIDE CENTER,26583 HWY 19 NORTH,CLEARWATER,FL,33761,US,727-791-8580,28.0137,-82.7344
1145,SANDHILLS COMMONS,1325 SANDY GROVE AVENUE,CLERMONT,FL,34711,US,352-404-5354,28.5438898933795,-81.7333477861072
1121,THE PLAZA AT CORAL SPRINGS,8921 W. ATLANTIC BOULEVARD,CORAL SPRINGS,FL,33071,US,754-484-3423,26.238573,-80.245685
1403,DADELAND STATION,8364 SOUTH DIXIE HIGHWAY,DADELAND STATION,FL,33143,US,786-329-6761,25.693323,-80.305973
706,POSNER TOWN CENTER,1300 POSNER BLVD,DAVENPORT,FL,33837,US,863-424-4444,28.2266,-81.645
682,INTERNATIONAL SPEEDWAY SQUARE,"2500 W. INTERNATIONAL SPEEDWAY BLVD, SUITE 100",DAYTONA BEACH,FL,32114,US,386-255-5533,29.1801,-81.0819
1084,PAGE FIELD COMMONS,4977 CLEVELAND AVENUE,FORT MYERS,FL,33907,US,239-362-9575,26.587495,-81.869691
739,GULF COAST TOWN CENTER,10011 GULF CENTER DRIVE,FORT MYERS,FL,33913,US,239-433-0216,26.4856,-81.7882
1019,REGIONS BANK PLAZA,2420 NORTH FEDERAL HWY,FT. LAUDERDALE,FL,33305,US,954-566-1448,26.1564,-80.1171
1270,BUTLER NORTH,"3964 PLAZA BLVD, SUITE 20",GAINESVILLE,FL,32608,US,352-377-3316,29.628144,-82.38346
235,ST JOHNS TOWN CENTER,10390 MIDTOWN PARKWAY,JACKSONVILLE,FL,32246,US,904-642-4299,30.2568,-81.5245
1041,PARKWAY SHOPS,"14964 MAX LEGGETT PARKWAY, SUITE 300",JACKSONVILLE,FL,32218,US,904-757-9602,30.482,-81.6409
1405,TREASURE COAST COMMONS,3101 N.W. FEDERAL HIGHWAY,JENSEN BEACH,FL,34957,US,772-934-5360,27.241856,-80.269655
1326,GLEASON PLACE,233 NW HUTTON DRIVE,LAKE CITY,FL,32055,US,386-754-3988,30.18124891,-82.66873562
1037,LAKELAND PARK CENTER,"919 LAKELAND PARK CENTER DR., SUITE 300",LAKELAND,FL,33809,US,863-248-1200,28.090304,-81.970709
264,MELBOURNE SQUARE,1700 W. NEW HAVEN AVENUE,MELBOURNE,FL,32904,US,321-984-4012,28.0806,-80.6508
1074,THE PALMS AT TOWN &AMP; COUNTRY,11900 MILLS DRIVE,MIAMI,FL,33183,US,305-595-9410,25.689833,-80.386052
1415,THE SHOPS AT MIDTOWN MIAMI,3401 NORTH MIAMI AVENUE,MIAMI,FL,33137,US,786-221-0650,25.808598,-80.194854
1168,NAPLES,5955 NAPLES BLVD,NAPLES,FL,34109,US,239-325-6456,26.218,-81.7757
373,MARKET STREET AT HEATHBROOK,"4414 SW COLLEGE ROAD, SUITE 1800",OCALA,FL,34474,US,352-237-7672,29.1423,-82.1911
263,ORANGE PARK MALL,1910 WELLS ROAD,ORANGE PARK,FL,32073,US,904-215-0207,30.1847,-81.7332
1179,FASHION SQUARE MALL,724 HERNDON AVENUE,ORLANDO,FL,32803,US,321-332-9991,28.5549,-81.338
698,MILLENIA PLAZA,4615 MILLENIA PLAZA WAY,ORLANDO,FL,32839,US,407-355-0733,28.4969,-81.4274
1120,FLORIDA MALL,"8001 S ORANGE BLOSSOM TRAIL, SUITE 1302",ORLANDO,FL,32809,US,321-445-4286,28.449233,-81.400088
631,SHOPPES AT ALAFAYA,1100 ALAFAYA TRAIL,ORLANDO,FL,32828,US,407-380-9066,28.5592,-81.208
1198,PACE CROSSROADS,4881 HIGHWAY 90,PACE,FL,32571,US,(850) 463-3158,30.60103,-87.120692
1042,PIER PARK NORTH,"15700 PANAMA CITY BEACH PARK, UNIT 400",PANAMA CITY BEACH,FL,32413,US,850-238-3322,30.224548,-85.868737
669,PEMBROKE CROSSINGS,11940 PINES BLVD.,PEMBROKE,FL,33026,US,954-430-5873,26.0058,-80.3099
1039,CORDOVA MALL,5100 N 9TH AVENUE,PENSACOLA,FL,32504,US,850-478-9605,30.475556,-87.205909
668,THE FOUNTAINS,801 S. UNIVERSITY DRIVE,PLANTATION,FL,33324,US,954-472-8855,26.1102,-80.2532
390,SEMINOLE TOWNE CENTER,350 TOWNE CENTER CIRCLE,SANFORD,FL,32771,US,407-324-5800,28.8036,-81.3379
1321,TYRONE SQUARE MALL,6775 22nd Avenue N,St. Petersburg,FL,33710,US,(727) 290-4476,27.79249566,-82.73114712
1418,SAWGRASS MILLS MALL,12801 WEST SUNRISE BOULEVARD,SUNRISE,FL,33323,US,954-375-7937,26.150336,-80.324242
1099,TALLAHASSEE SHOPPING CENTER,1729 APALACHEE PARKWAY,TALLAHASSEE,FL,32301,US,850-309-0490,30.4311,-84.2514
288,WESTFIELD CITRUS PARK,8100 CITRUS PARK TOWN CENTER,TAMPA,FL,33625,US,813-920-5700,28.0694,-82.5783
1130,WESTSHORE PLAZA,258 WESTSHORE PLAZA,TAMPA,FL,33609,US,813-422-5132,27.946727,-82.529415
316,WESLEY CHAPEL,5925 WESLEY GROVE BLVD,WESLEY CHAPEL,FL,33544,US,813-991-1618,28.2439,-82.3528
748,SOUTHERN CROSSING,8821 SOUTHERN BLVD,WEST PALM BEACH,FL,33411,US,561-204-4133,26.6816,-80.1829
333,NORTH POINT MALL,6440 NORTH POINT PARKWAY,ALPHARETTA,GA,30022,US,770-521-1195,34.0442,-84.2925
1068,EPPS BRIDGE CENTER,"1791 OCONEE CONNECTOR, SUITE 120",ATHENS,GA,30606,US,706-227-4077,33.914978,-83.452745
418,LENOX MARKETPLACE,3535 PEACHTREE ROAD,ATLANTA,GA,30326,US,404-267-0200,33.8529,-84.3599
1420,PERIMETER POINTE,1155 MT VERNON HIGHWAY,ATLANTA,GA,30338,US,770-217-6392,33.933309,-84.349984
388,AUGUSTA MALL,3450 WRIGHTSBORO ROAD,AUGUSTA,GA,30909,US,706-733-1199,33.4649,-82.0807
644,GLYNN ISLES,440 GLYNN ISLES,BRUNSWICK,GA,31525,US,912-262-2433,31.2044,-81.481
419,MALL OF GEORGIA AT MILLCREEK,3333 BUFORD DRIVE,BUFORD,GA,30519,US,678-482-1200,34.0652,-83.9828
301,CANTON MARKETPLACE,1810 CUMMING HIGHWAY,CANTON,GA,30115,US,770-345-1218,34.2351,-84.4604
325,COLUMBUS PARK CROSSING,5550 WHITTLESEY BLVD.,COLUMBUS PARK,GA,31909,US,706-320-0179,32.5436,-84.9443
302,CUMMING TOWN CENTER,2145 MARKETPLACE BLVD.,CUMMING,GA,30041,US,770-292-9834,34.1935,-84.1299
326,FAYETTE PAVILION,305 A PAVILLION PARKWAY,FAYETTEVILLE,GA,30214,US,678-817-0676,33.482,-84.4473
1090,LAKESHORE MALL,"150 PEARL NIX PARKWAY, SUITE G",GAINESVILLE,GA,30501,US,770-534-4730,34.294727,-83.845102
1320,OGLETHORPE SQUARE,"863 OGLETHORPE HIGHWAY, SUITE 101",HINESVILLE,GA,31313,US,912-369-0701,31.820698,-81.600938
4625,TOWN CENTER COMMONS,"667 ERNEST W BARRETT PARKWAY NW, SUITE A",KENNESAW,GA,30144,US,770-281-0200,34.004411,-84.572475
775,NORTH LOGAN COMMONS,4040 ATLANTA HIGHWAY,LOGANVILLE,GA,30052,US,770-466-1333,33.848,-83.9089
740,THE SHOPPES AT RIVER CROSSING,5080 RIVERSIDE DRIVE,MACON,GA,31210,US,478-477-6777,32.9243,-83.7128
1196,EAST COBB CROSSING,4269 ROSWELL ROAD,MARIETTA,GA,30062,US,678-433-0010,33.986286,-84.426446
276,SOUTHPOINT,1855 JONESBORO ROAD,MCDONOUGH,GA,30253,US,770-957-4336,33.4632,-84.218
269,THE VILLAGE AT NEWNAN CROSSING,382 NEWNAN CROSSING BYPASS,NEWNAN,GA,30265,US,770-253-1501,33.3871,-84.7638
1002,PEACHTREE SQUARE,"6050 PEACHTREE PARKWAY, SUITE 450",NORCROSS,GA,30092,US,770-613-0077,33.9531,-84.2319
1310,POOLER POINTE,"201 TANGER OUTLETS BLVD., SUITE 100",POOLER,GA,31322,US,912-330-2654,32.135793,-81.248961
1106,MARKET WALK,"318 MALL BLVD, SUITE #200",SAVANNAH,GA,31406,US,912-480-9037,32.00625,-81.111547
1247,TUCKER MERIDIAN,"4310 LAVISTA ROAD, SUITE A100",TUCKER,GA,30084,US,770-217-6311,33.850026,-84.243852
1231,BURLINGTON COMMONS,"3200 AGENCY ST, #150",BURLINGTON,IA,52601,US,319-237-3447,40.813126,-91.159621
273,MARKET PLACE,4601 1ST AVENUE SE,CEDAR RAPIDS,IA,52402,US,319-743-3066,42.0235,-91.6218
1190,METRO CROSSING,3816 METRO DRIVE,COUNCIL BLUFFS,IA,51501,US,712-435-3142,41.2193,-95.8384
4615,DAVENPORT COMMONS,"5511 ELMORE AVENUE, SUITE A",DAVENPORT,IA,52807,US,563-355-7042,41.578958,-90.52434
695,KENNEDY MALL,555 JOHN F. KENNEDY ROAD,DUBUQUE,IA,52002,US,563-557-6130,42.4939,-90.7225
688,CROSSROADS COMMONS,1411 FLAMMANG DRIVE,WATERLOO,IA,50702,US,319-287-5722,42.461,-92.3289
1101,JORDAN CREEK,"320 SOUTH JORDAN CREEK PARKWAY, SUITE 100",WEST DES MOINES,IA,50266,US,515-225-6230,41.564515,-93.807325
1202,WESTPARK TOWNE PLAZA,131 N MILWAUKEE STREET,BOISE,ID,83704,US,208-999-3475,43.606207,-116.283346
685,CENTRE POINT MARKETPLACE,3415 N EAGLE ROAD,MERIDIAN,ID,83646,US,208-884-2026,43.6361,-116.358
1167,TREASURE VALLEY CROSSING,16905 N MARKETPLACE BLVD,NAMPA,ID,83687,US,208-546-3433,43.6146,-116.598
636,POCATELLO SQUARE,1844 HURLEY DRIVE,POCATELLO,ID,83202,US,208-238-6002,42.9083,-112.459
1165,CANYON PARK WEST,1939 FILLMORE STREET,TWIN FALLS,ID,83301,US,208-944-3105,42.597078,-114.458756
476,ALGONQUIN,1816 RANDALL ROAD,ALGONQUIN,IL,60102,US,847-960-7700,42.1515,-88.3399
266,TOWN &AMP; COUNTRY SHOPPING CENTER,401 E. PALATINE ROAD,ARLINGTON HEIGHTS,IL,60004,US,847-577-1283,42.1078,-87.9769
267,BLOOMINGDALE COURT,328 WEST ARMY TRAIL ROAD,BLOOMINGDALE,IL,60108,US,630-351-0823,41.9367,-88.1053
1283,EMPIRE CROSSING,1608 EAST EMPIRE STREET,BLOOMINGTON,IL,61701,US,309-807-1908,40.48773,-88.95333
750,BRADLEY COMMONS,2054 N. STATE ROUTE 50,BOURBONNAIS,IL,60914,US,815-802-0565,41.1876,-87.8478
369,UNIVERSITY PLACE,1250 EAST MAIN STREET,CARBONDALE,IL,62901,US,618-549-7581,37.734,-89.1925
4601,MARKET PLACE SHOPPING CENTER,"2000 N NEIL STREET, SUITE 2000A",CHAMPAIGN,IL,61820,US,217-402-8366,40.13992,-88.24499
1149,LINCOLN PARK,1538 N. CLYBOURN AVENUE,CHICAGO,IL,60610,US,312-489-2136,41.909246,-87.647825
1133,THE MAXWELL,1100 S. CANAL STREET,CHICAGO,IL,60607,US,312-448-2184,41.867925,-87.631115
311,TOWN CENTER PROMENADE,21830 WEST LONG GROVE ROAD,DEER PARK,IL,60010,US,847-550-1527,42.1637,-88.0593
1334,FAIRVIEW CITY CENTRE,6575 NORTH ILLINOIS STREET,FAIRVIEW HEIGHTS,IL,62208,US,618-213-3134,38.594769,-89.98731
442,GENEVA COMMONS,618 COMMONS DRIVE,GENEVA,IL,60134,US,630-943-4100,41.8953,-88.3437
456,THE GLEN,1900 TOWER DRIVE,GLENVIEW,IL,60026,US,847-730-7400,42.0892,-87.8251
1239,JOLIET COMMONS,2601A PLAINFIELD ROAD,JOLIET,IL,60435,US,815-230-1075,41.5781,-88.1553
415,FOUNTAIN SQUARE,810 E BUTTERFIELD ROAD,LOMBARD,IL,60148,US,630-317-0200,41.8421,-87.9966
293,MCHENRY SQUARE,3436 SHOPPERS DRIVE,MCHENRY,IL,60051,US,815-578-8880,42.3675,-88.2652
1201,SOUTHPARK MALL,"4500 16TH ST, SUITE XD1",MOLINE,IL,61265,US,309-517-2572,41.468003,-90.502252
643,SPRINGBROOK PRAIRIE PAVILLION,2763 W 75TH STREET,NAPERVILLE,IL,60540,US,630-548-1476,41.749,-88.202
437,VILLAGE CROSSING,5601 TOUHY AVENUE,NILES,IL,60714,US,847-779-8800,42.009,-87.7681
1311,VILLAGE SQUARE OF NORTHBROOK,275 SKOKIE BOULEVARD,NORTHBROOK,IL,60062,US,224-330-1251,42.147807,-87.79668
454,ORLAND PARK PLACE,"ONE ORLAND PARK PLACE, SUITE 1",ORLAND PARK,IL,60462,US,708-675-3100,41.6137,-87.8514
312,PRAIRIE MARKET,2470 US HWY 34,OSWEGO,IL,60543,US,630-554-9061,41.7016,-88.3063
443,THE SHOPPES AT GRAND PRARIE,5205 WEST WAR MEMORIAL DRIVE,PEORIA,IL,61615,US,309-683-2400,40.7808,-89.673
1284,PRAIRIE TRAILS,6006 BROADWAY STREET,QUINCY,IL,62301,US,217-228-7780,39.932405,-91.322458
50,ROCKFORD SHOPPING CENTER,6380 E. STATE STREET,ROCKFORD,IL,61108,US,815-397-7115,42.2704,-88.9924
412,STREETS OF WOODFIELD,"601 N MARTINGALE, SUITE 195",SCHAUMBURG,IL,60173,US,847-995-0200,42.0416,-88.0344
179,WHITE OAKS MALL,2501 W. WABASH AVENUE,SPRINGFIELD,IL,62704,US,217-726-6451,39.766,-89.7031
313,TINLEY PARK TOWN CENTER,7370 WEST 191ST,TINLEY PARK,IL,60487,US,815-806-4952,41.5478,-87.7983
681,FASHION SQUARE,700 N. MILWAUKEE AVENUE  UNIT #121,VERNON HILLS,IL,60061,US,847-573-8240,42.2377,-87.9472
751,KENDALE MARKETPLACE,825 ERICA LANE,YORKVILLE,IL,60560,US,630-553-5365,41.6646,-88.461
180,AVON COMMONS,10375 EAST US HIGHWAY 36,AVON,IN,46123,US,317-271-7850,39.7605,-86.339
226,COLLEGE MALL,2850 E. 3RD STREET,BLOOMINGTON,IN,47401,US,812-335-1377,39.1604,-86.4959
183,CLAY TERRACE,14350 CLAY TERRACE BLVD.,CARMEL,IN,46032,US,317-818-3467,39.9963,-86.1312
280,RIVER FALLS MALL,951 E LEWIS &amp; CLARK PARKWAY,CLARKSVILLE,IN,47129,US,812-288-2194,38.3187,-85.7602
1360,EAST LLOYD COMMONS,6200 EAST LLOYD EXPRESSWAY,EVANSVILLE,IN,47715,US,(812) 777-3200,37.97884239,-87.47621568
111,APPLE GLEN CROSSING,1520 APPLE GLEN BLVD.,FORT WAYNE,IN,46804,US,260-434-0181,41.0713,-85.2034
228,FORT WAYNE,256-309 COLISEUM BLVD.,FORT WAYNE,IN,46805,US,260-470-4224,41.1198,-85.138
181,GREENWOOD MALL,1251 US 31 NORTH,GREENWOOD,IN,46142,US,317-882-1079,39.6316,-86.119
781,HIGHLAND GROVE,10251 INDIANAPOLIS BLVD,HIGHLAND,IN,46322,US,219-924-2237,41.5276,-87.4684
416,CASTLETON SQUARE MALL,6020 E 82ND STREET,INDIANAPOLIS,IN,46250,US,317-576-0300,39.9096,-86.0632
475,TRADER&#39;S POINT,6030 WEST 86TH STREET,INDIANAPOLIS,IN,46278,US,317-956-1400,39.9126,-86.2674
225,TIPPECANOE MALL,2415 SAGAMORE PARKWAY SOUTH,LAFAYETTE,IN,47905,US,765-449-0914,40.3928,-86.85
256,WESTFIELD SHOPPINGTOWN SOUTHLAKE,2225 SOUTHLAKE MALL,MERRILLVILLE,IN,46410,US,219-791-0610,41.4676,-87.3092
37,PRINCESS CITY PLAZA,4520 GRAPE ROAD,MISHAWAKA,IN,46545,US,574-243-4789,41.7009,-86.184
1162,CENTER SHOPPES,620 E MCGALLIARD ROAD,MUNCIE,IN,47303,US,765-212-3677,40.22063,-85.38076139
731,HAMILTON TOWN CENTER,13157 NORELL LANE,NOBLESVILLE,IN,46060,US,317-776-1687,39.9901,-85.9316
279,THE SHOPS AT PERRY CROSSING,338 CITY CENTER CIRCLE,PLAINFIELD,IN,46168,US,317-839-4803,39.7125,-86.3575
1180,RICHMOND VILLAGE,3718 NATIONAL ROAD EAST,RICHMOND,IN,47374,US,765-373-9607,39.8331,-84.8497
1205,PORTER&#39;S VALE,100 PORTER&#39;S VALE BOULEVARD,VALPARAISO,IN,46383,US,219-707-8237,41.469868,-87.014989
184,WASHINGTON SQUARE,10202 E WASHINGTON STREET,WASHINGTON,IN,46229,US,317-890-8802,39.7784,-85.9847
1146,SCHULMAN CROSSING,1540 LAREU STREET,GARDEN CITY,KS,67846,US,620-805-3442,37.978809372345,-100.83428059965
1163,LAWRENCE,"2727 IOWA ST, SUITE C",LAWRENCE,KS,66046,US,785-312-3317,38.9336493964262,-95.2624255897522
408,TOWN CENTER PLAZA,11801 NALL AVENUE,LEAWOOD,KS,66211,US,913-661-0200,38.9145,-94.6484
613,MANHATTAN MARKETPLACE,401 3RD PLACE,MANHATTAN,KS,66502,US,785-539-7800,39.1851,-96.5605
119,MERRIAM TOWNE CENTER,5600 ANTIOCH ROAD,MERRIAM,KS,66202,US,913-432-3945,39.0277,-94.6891
117,NORTHRIDGE PLAZA,15280 W. 119TH STREET,OLATHE,KS,66062,US,913-254-9196,38.915,-94.7621
1103,MIDSTATE PLAZA,2450 9TH STREET,SALINA,KS,67401,US,785-827-3540,38.797507,-97.615742
132,HOME DEPOT EXTENSION,5900 SW HUNTOON STREET,TOPEKA,KS,66604,US,785-271-5398,39.0459,-95.759
135,TALL GRASS CENTER,2057 N. ROCK ROAD,WICHITA,KS,67206,US,316-682-6811,37.7211,-97.2468
133,TOWNE WEST CENTER,4600 W. KELLOGG DRIVE,WICHITA,KS,67209,US,316-942-0910,37.678,-97.4014
1114,MELODY MOUNTAIN,469 RIVER HILL DRIVE,ASHLAND,KY,41101,US,606-327-5561,38.484006,-82.657603
1115,GARY FARMS,2300 GARY FARMS BLVD,BOWLING GREEN,KY,42104,US,270-796-9115,36.956328,-86.430416
70,TURFWAY CROSSING,"1336 HANSEL AVENUE, SUITE 200",FLORENCE,KY,41042,US,859-283-2702,39.018565,-84.637604
1140,PARKSIDE,"7800 JOHN DAVIS DRIVE , SUITE #100",FRANKFORT,KY,40601,US,502-871-3624,38.175840976598,-84.820956526865
26,HAMBURG PAVILION,1968 PAVILLION WAY,LEXINGTON,KY,40509,US,859-264-8800,38.0241,-84.4157
187,FAYETTE MALL,3645 NICHOLASVILLE ROAD,LEXINGTON,KY,40503,US,859-273-1642,37.987,-84.5302
19,STONEYBROOK SHOPPING CENTER,3500 S HURSTBOURNE PKWY,LOUISVILLE,KY,40299,US,502-499-9029,38.1981,-85.6048
425,OXMOOR CENTER,7900 SHELBYVILLE ROAD,LOUISVILLE,KY,40222,US,502-420-6400,38.2481,-85.61
17,SPRINGHURST TOWN CENTER,3555 SPRINGHURST BLVD,LOUISVILLE,KY,40241,US,502-429-0776,38.298,-85.5588
1132,NEWPORT PAVILLION,175 PAVILLION PARKWAY,NEWPORT,KY,41071,US,859-261-1348,39.0863516391089,-84.4750098506097
696,KENTUCKY OAKS MALL,"5101 HINKLEVILLE ROAD, UNIT #600",PADUCAH,KY,42001,US,270-442-0100,37.08,-88.6891
1181,RICHMOND CENTRE,2145 LANTERN RIDGE DRIVE,RICHMOND,KY,40475,US,859-353-3009,37.7385,-84.3262
399,MALL OF LOUISIANA,9330 MALL OF LOUISIANA BLVD. SUITE 200,BATON ROUGE,LA,70809,US,225-766-9100,30.3867,-91.0817
1087,OAKWOOD CENTER,197 WESTBANK EXPRESSWAY,GRETNA,LA,70053,US,504-361-3869,29.922302,-90.040326
4603,AMBASSADOR TOWN CENTER,"110 OLD CAMP ROAD, SUITE A",LAFAYETTE,LA,70508,US,337-417-8371,30.154693,-92.043482
1098,PRIEN LAKE MALL,542 WEST PRIEN LAKE ROAD,LAKE CHARLES,LA,70601,US,337-478-1488,30.199544,-93.2274
610,LAKESIDE SHOPPING CENTER,3301 VETERANS MEMORIAL,METAIRIE,LA,70002,US,504-835-0091,30.0084,-90.1588
1040,PECANLAND MALL,"4700 MILLHAVEN ROAD, SUITE 1566",MONROE,LA,71203,US,318-410-1156,32.498,-92.0606
386,KINGS CROSSING,7543 YOUREE DRIVE,SHREVEPORT,LA,71105,US,318-797-9110,32.4366,-93.7121
1044,FREMAUX TOWN CENTER,250 TOWN CENTER PARKWAY,SLIDELL,LA,70458,US,985-718-3252,30.267207,-89.75795
236,WESTGATE MALL,435 WESTGATE DRIVE,BROCKTON,MA,02301,US,508-559-9290,42.0947,-71.0556
435,LIBERTY TREE,96 COMMONWEALTH AVENUE,DANVERS,MA,01923,US,978-646-6400,42.5512,-70.9448
237,DARTMOUTH COMMONS,475 STATE ROAD,DARTMOUTH,MA,02747,US,508-999-1617,41.6387,-71.0025
304,DEDHAM MALL,180 PROVIDENCE HIGHWAY,DEDHAM,MA,02026,US,781-329-2862,42.254,-71.1695
176,HAMPSHIRE MALL,367 RUSSELL STREET,HADLEY,MA,01035,US,413-584-6934,42.3565,-72.5487
1027,HANOVER MALL,1803 WASHINGTON STREET,HANOVER,MA,02339,US,781-826-9282,42.1434,-70.8409
186,ORCHARD HILL PARK,56 ORCHARD HILL PARK DRIVE,LEOMINSTER,MA,01453,US,978-537-4081,42.5254,-71.7147
1308,MEADOW GLENN MALL,3850 MYSTIC VALLEY PARKWAY,MEDFORD,MA,02155,US,781-498-0006,42.40750613,-71.09145964
162,THE SHOPPES AT BLACKSTONE VALLEY,"70 WORCHESTER PROVIDENCE TURNPIKE, SUITE 200",MILLBURY,MA,01527,US,508-865-7250,42.1954,-71.7781
255,SHERWOOD PLAZA,1336 WORCESTER STREET,NATICK,MA,01760,US,508-653-0908,42.2987,-71.3919
160,ATTLEBORO MARKETPLACE,1360 SOUTH WASHINGTON STREET,NORTH ATTLEBORO,MA,02760,US,508-699-8475,41.9381,-71.3453
1030,NORTHBOROUGH CROSSING,5102 SHOPS WAY,NORTHBOROUGH,MA,01532,US,508-393-1638,42.2885,-71.6711
224,PITTSFIELD,635 MERRILL ROAD,PITTSFIELD,MA,01201,US,413-395-0870,42.465,-73.2067
175,THE PLAZA AT COLONY PLACE,205 COLONY PLACE,PLYMOUTH,MA,02360,US,508-746-6932,41.9531,-70.7172
238,SQUARE ONE MALL,1201 BROADWAY,SAUGUS,MA,01906,US,781-233-0476,42.4613,-71.0289
166,SEEKONK,275 HIGHLAND AVE,SEEKONK,MA,02771,US,508-336-3004,41.7972,-71.3327
245,SILVER CITY GALLERIA,2 GALLERIA MALL DRIVE,TAUNTON,MA,02780,US,508-823-8132,41.8631,-71.0529
35,RIVERDALE SHOPPING CENTER,1081 RIVERDALE STREET,WEST SPRINGFIELD,MA,01089,US,413-781-6155,42.1329,-72.6226
151,LINCOLN PLAZA,541E LINCOLN STREET,WORCESTER,MA,01605,US,508-595-9808,42.2929,-71.7706
76,NOTTINGHAM SQUARE,5220 CAMPBELL BLVD.,BALTIMORE,MD,21236,US,410-933-0134,39.3718,-76.4527
79,MACPHAIL CROSSING EAST,540 WEST MACPHAIL ROAD,BEL AIR,MD,21014,US,410-638-7404,39.5238,-76.3463
77,HUNT VALLEY TOWNE PLAZA,118 SHAWAN ROAD,COCKEYSVILLE,MD,21030,US,410-584-9050,39.4988,-76.6532
78,COLUMBIA CROSSING,6221 COLUMBIA CROSSING CIRCLE,COLUMBIA,MD,21045,US,410-872-1100,39.1984,-76.8164
1096,WATERSIDE VILLAGE AT EASTON,28564 MARLBORO AVENUE,EASTON,MD,21601,US,410-200-9560,38.7842,-76.0846
1322,CHATHAM STATION SHOPPING CENTER,9220 BALTIMORE NATIONAL PIKE,ELLICOTT CITY,MD,21042,US,443-288-0071,39.2786807,-76.8310508
614,FRANCIS SCOTT KEY MALL,"5500 BUCKEYSTOWN PIKE, SUITE 900",FREDERICK,MD,21703,US,240-772-3181,39.3827,-77.4072
414,WASHINGTONIAN CENTER,2 GRAND CORNER AVENUE,GAITHERSBURG,MD,20878,US,301-947-0200,39.1178,-77.2011
772,VILLAGE AT WAUGH CHAPEL,1417 SOUTH MAIN CHAPEL WAY,GAMBRILLS,MD,21054,US,410-721-4941,39.0335,-76.6891
694,GOVERNOR PLAZA,6633 RITCHIE HIGHWAY,GLEN BURNIE,MD,21061,US,410-768-9372,39.1947,-76.6101
107,HAGERSTOWN,17780 GARLAND GROH BLVD,HAGERSTOWN,MD,21740,US,240-420-0140,39.6563,-77.7524
639,LEXINGTON VILLAGE,46260 LEXINGTON VILLAGE WAY,LEXINGTON PARK,MD,20653,US,240-725-0142,38.2839,-76.4803
318,THE CENTRE AT SALISBURY,2300 N. SALISBURY BLVD.,SALISBURY,MD,21801,US,410-219-1136,38.3976,-75.5654
143,ST. CHARLES TOWNE CENTER,11080 MALL CIRCLE ROAD,WALDORF,MD,20603,US,301-885-1762,38.6184,-76.9242
693,TOWN MALL,400 NORTH CENTER STREET,WESTMINSTER,MD,21157,US,410-848-1039,39.58,-76.983
1031,WHEATON PLAZA,"11160 VEIRS MILL ROAD, SUITE P100",WHEATON,MD,20902,US,301-933-3494,39.0349,-77.0551
244,THE MARKETPLACE AT AUGUSTA,"80 STEPHEN KING DRIVE, SUITE 2",AUGUSTA,ME,04330,US,207-622-3987,44.349,-69.7852
223,BANGOR MALL,641 STILLWATER AVENUE,BANGOR,ME,04401,US,207-990-5932,44.8302,-68.7493
165,PORTLAND,385 GORHAM ROAD,SOUTH PORTLAND,ME,04106,US,207-828-4950,43.6375,-70.3318
317,TOPSHAM FAIR MALL,131 TOPSHAM FAIR MALL ROAD,TOPSHAM,ME,04086,US,207-721-3074,43.9325,-69.9846
1013,WATERS PLACE,3120 LOHR ROAD,ANN ARBOR,MI,48108,US,734-332-6095,42.2399,-83.7623
687,BLOOMFIELD TOWN SQUARE,2105 TELEGRAPH ROAD,BLOOMFIELD,MI,48302,US,248-456-1806,42.6093,-83.2969
294,GREEN OAK VILLAGE PLACE,9550 VILLAGE PLACE BLVD,BRIGHTON,MI,48116,US,810-225-4849,42.5068,-83.7523
1023,PREMIER CENTER,45700 MICHIGAN AVENUE,CANTON,MI,48188,US,734-495-0387,42.2738,-83.4896
360,WATERSIDE MARKET PLACE,50580 WATERSIDE DRIVE,CHESTERFIELD TWP,MI,48051,US,586-949-0760,42.6701,-82.8271
306,KENTWOOD TOWNE CENTRE,5118 28TH SE,GRAND RAPIDS,MI,49512,US,616-977-2301,42.908,-85.5427
420,RIVERTOWN CROSSINGS,3660 RIVERTOWN PARKWAY,GRANDVILLE,MI,49418,US,616-249-0660,42.8803,-85.7548
1189,RILEY CENTER,3530 W. SHORE DRIVE,HOLLAND,MI,49424,US,616-820-0118,42.8323,-86.0915
90,EASTWOOD TOWNE CENTER,2801 PREYDE BLVD,LANSING,MI,48912,US,517-702-1300,42.7624,-84.5141
1147,LIVONIA COMMONS,13501 MIDDLEBELT ROAD,LIVONIA,MI,48150,US,734-293-0069,42.378074,-83.335686
1020,INDIAN HILLS PLAZA,4208 E. BLUEGRASS ROAD,MT. PLEASANT,MI,48858,US,989-772-1990,43.5729,-84.7635
240,THE LAKES MALL,5660 S HARVEY PARKWAY,MUSKEGON,MI,49444,US,231-798-8003,43.1493,-86.2017
96,HIGHPOINT SHOPPING CENTER,21061 HAGGERTY ROAD,NOVI,MI,48375,US,248-735-8180,42.4406,-83.4374
432,FOUNTAIN WALK,44225 12 MILE ROAD,NOVI,MI,48377,US,248-596-3400,42.4939,-83.4847
438,MERIDIAN MALL,"1982 W. GRANDRIVER AVENUE, SUITE 310",OKEMOS,MI,48864,US,517-853-0400,42.7258,-84.4179
1006,PORTAGE,6355 WESTNEDGE AVENUE,PORTAGE,MI,49002,US,269-329-1956,42.2247,-85.5868
607,FORT GRATIOT SHOPPING CENTER,4715 24TH AVENUE,PORT HURON,MI,48059,US,810-385-5273,43.0443,-82.4593
93,WINCHESTER CENTER,I290 S. ROCHESTER ROAD,ROCHESTER HILLS,MI,48307,US,248-608-9696,42.6624,-83.1363
1177,MACOMB MALL,32385 GRATIOT AVENUE,ROSEVILLE,MI,48066,US,586-279-1221,42.5353,-82.9154
94,WEST VALLEY SHOPPING CENTER,3343 TITTABAWASSEE ROAD,SAGINAW,MI,48604,US,989-793-3346,43.4774,-83.9821
1265,,13000 HALL ROAD,STERLING HEIGHTS,MI,48313,US,586-884-0200,42.624453,-82.9994
89,TAYLOR RETAIL CENTER,23349 EUREKA ROAD,TAYLOR,MI,48180,US,734-374-0429,42.1951,-83.2594
1268,OAKLAND MALL,562 W 14 MILE ROAD,TROY,MI,48083,US,248-581-8122,42.537516,-83.110415
4400,NORTH POINT CENTER,45230 NORTHPOINTE BLVD,UTICA,MI,48315,US,586-254-2653,42.62956,-82.998624
1319,CENTRAL LAKES CROSSING,13499 ELMWOOD DRIVE,BAXTER,MN,56425,US,(218) 297-0480,46.34749772,-94.24825483
265,BURNSVILLE CENTER,"901 COUNTY ROAD 42 WEST, B-200",BURNSVILLE,MN,55306,US,952-898-0743,44.7449,-93.289
619,RIVERDALE VILLAGE,12661 RIVERDALE BLVD.,COON RAPIDS,MN,55448,US,763-323-8611,45.2016,-93.3488
1017,MILLER HILL MALL,1600 MILLER TRUNK HIGHWAY,DULUTH,MN,55811,US,218-727-2078,46.803644,-92.158382
299,FOUNTAINS OF ARBOR LAKES,11361 FOUNTAINS DRIVE,MAPLE GROVE,MN,55369,US,763-315-5377,45.0901,-93.4249
409,WEST RIDGE MARKET,11260 WAYZATA BLVD,MINNETONKA,MN,55305,US,952-525-0200,44.9736,-93.4239
411,RICHFIELD,1700 W 78TH STREET,RICHFIELD,MN,55423,US,612-869-0200,44.8633,-93.3013
393,CROSSROADS MALL,1645 COUNTY ROAD B2 W,ROSEVILLE,MN,55113,US,651-633-7242,45.0163,-93.169
1296,MARKETPLACE SHOPPING CENTER,40 2ND STREET S,WAITE PARK,MN,56387,US,320-227-6366,45.548382,-94.214595
407,TAMARACK VILLAGE,8292 TAMARACK VILLAGE,WOODBURY,MN,55125,US,651-731-0200,44.942,-92.9407
332,CHESTERFIELD COMMONS,64 THF BLVD.,CHESTERFIELD,MO,63005,US,636-536-3718,38.6663,-90.5879
783,STADIUM SHOPPES,227 N. STADIUM,COLUMBIA,MO,65203,US,573-447-1001,38.9607,-92.3746
452,WEST COUNTY CENTER,200 WEST COUNTY CENTER,DES PERES,MO,63131,US,314-649-1400,38.5999,-90.4469
1264,INDEPENDENCE CENTER,18801 E. 39TH STREET,INDEPENDENCE,MO,64057,US,(816) 321-7003,39.045415,-94.359249
1077,STONERIDGE VILLAGE,739 STONERIDGE PARKWAY,JEFFERSON CITY,MO,65109,US,573-556-5602,38.5793,-92.2219
118,ZONA ROSA,8665 NW PRAIRIE VIEW ROAD,KANSAS CITY,MO,64153,US,816-436-3524,39.2514,-94.661
1301,SUMMIT FAIR,840 NW BLUE PARKWAY,LEES SUMMIT,MO,64086,US,417-295-3033,38.928187,-94.402192
635,LIBERTY TRIANGLE,1890 COLLEGE STREET,LIBERTY,MO,64068,US,816-407-1111,39.2478,-94.4485
1134,LAKEVIEW POINTE,4635 OSAGE BEACH PARKWAY,OSAGE BEACH,MO,65065,US,573-302-7470,38.1450581462531,-92.6312498248565
1086,SOUTH COUNTY MALL,590 SOUTH COUNTY CENTER WAY,SOUTH COUNTY,MO,63129,US,314-416-1905,38.504522,-90.334807
1029,COOK CROSSING,4204 NORTH BELT HIGHWAY,ST. JOSEPH,MO,64506,US,816-390-8088,39.8079,-94.8169
348,MID RIVERS MALL,1600 MID RIVERS MALL,ST. PETERS,MO,63376,US,636-278-5050,38.7964,-90.6147
1178,PHOENIX CENTER II,3162 PHOENIX CENTER DRIVE,WASHINGTON,MO,63090,US,636-266-3006,38.534383,-90.980166
1193,WENTZVILLE CROSSING,1866 WENTZVILLE PARKWAY,WENTZVILLE,MO,63385,US,636-445-3081,38.8177,-90.8747
1175,UNIVERSITY MALL,2041 US 45,COLUMBUS,MS,39705,US,662-570-1025,33.524686566234,-88.437977144003
784,THE PROMENADE,3893 PROMENADE PARKWAY,D&#39;IBERVILLE,MS,39540,US,228-392-1607,30.4535,-88.9015
395,MARKET STREET AT FLOWOOD,720 MACKENZIE LANE,FLOWOOD,MS,39232,US,601-992-2341,32.3371,-90.0683
1016,TURTLE CREEK MALL,1000 TURTLE CREEK ROAD,HATTIESBURG,MS,39402,US,601-264-6648,31.3229,-89.3757
793,MADISON GRANDVIEW,175 GRANDVIEW BLVD.,MADISON,MS,39110,US,601-853-4373,32.4642,-90.1374
1214,OXFORD GALLERIA II,300 MERCHANTS DRIVE,OXFORD,MS,38655,US,662-281-5814,34.363,-89.569
703,THE MALL AT BARNES CROSSING,1001 BARNES CROSSING ROAD,TUPELO,MS,38804,US,662-844-5799,34.3095,-88.7011
633,CENTER PARK,"11109 HIGHWAY 15/501, SUITE A",ABERDEEN,NC,28315,US,910-246-0778,35.1565,-79.4176
275,BEAVER CREEK CROSSINGS,1531 BEAVER CREEK COMMONS DRIVE,APEX,NC,27502,US,919-367-0194,35.7448,-78.8858
1112,THE LANDING,329 AIRPORT ROAD,ARDEN,NC,28704,US,828-974-3371,35.449085,-82.527423
205,RIVER HILLS SHOPPING CENTER,107 A RIVER HILLS ROAD,ASHEVILLE,NC,28805,US,828-299-0077,35.5749,-82.5212
397,ALAMANCE WEST,1465 BOONE STATION DRIVE,BURLINGTON,NC,27215,US,336-584-7545,36.0701,-79.5149
201,CROSSROAD PLAZA,401 CROSSROADS BLVD,CARY,NC,27518,US,919-851-7721,35.7622,-78.7359
218,NORTHLAKE MALL,6445 NORTHLAKE MALL DRIVE,CHARLOTTE,NC,28216,US,704-598-2577,35.3526,-80.8524
471,SOUTH PARK MALL,4325 BARCLAY DOWNS DRIVE,CHARLOTTE,NC,28209,US,704-972-9400,35.1532,-80.8339
336,AFTON RIDGE,6080 BAYFIELD PARKWAY,CONCORD,NC,28027,US,704-262-7373,35.4173,-80.6789
207,NEW HOPE COMMONS,5422 NEW HOPE COMMONS DRIVE,DURHAM,NC,27707,US,919-493-9884,35.9565,-78.9956
4613,FREEDOM TOWN CENTER,2741 Freedom Parkway Drive,FAYETTEVILLE,NC,28314,US,910-717-4910,35.0563129,-78.9649843
217,WHITE OAK CROSSING,145 SHENSTONE BLVD,GARNER,NC,27529,US,919-662-4177,35.6945,-78.5804
691,GASTON MALL,"415 COX ROAD, SUITE 100",GASTONIA,NC,28054,US,704-810-0994,35.2622,-81.1353
1184,GOLDSBORO,BERKELEY MALL RING ROAD,GOLDSBORO,NC,27534,US,919-221-6331,35.3769,-77.946585
206,WENDOVER PLACE SHOPPING CENTER,1208-A BRIDFORD PARKWAY,GREENSBORO,NC,27407,US,336-856-8875,36.0587,-79.9075
1066,11 GALLERIA,3500 GALLERIA DRIVE,GREENVILLE,NC,27834,US,252-329-0241,35.5678,-77.4072
203,HICKORY RIDGE,1860 CATAWBA VALLEY BLVD. SE,HICKORY,NC,28602,US,828-431-3025,35.7008,-81.3101
1018,HOLLY SPRINGS TOWNE CENTER,168 GRAND HILL PLACE,HOLLY SPRINGS,NC,27540,US,919-552-4148,35.6636496154626,-78.8484036806966
215,BIRKDALE VILLAGE,8825 TOWNLEY ROAD,HUNTERSVILLE,NC,28078,US,704-896-6244,35.445,-80.878
309,JACKSONVILLE,1112 WESTERN BOULEVARD,JACKSONVILLE,NC,28546,US,910-455-0928,34.7819,-77.394
722,KNIGHTDALE,216 HINTON OAKS BLVD.,KNIGHTDALE,NC,27545,US,919-266-7876,35.797,-78.5127
213,SYCAMORE COMMONS,"10530 NE PARKWAY, SUITE J",MATTHEWS,NC,28105,US,704-841-3959,35.1303,-80.7004
216,WINSLOW BAY COMMONS,590 J. RIVER HIGHWAY,MOORESVILLE,NC,28117,US,704-662-9066,35.5981,-80.8698
1024,CRYSTAL COAST PLAZA,5130 HIGHWAY 70 WEST,MOREHEAD,NC,28557,US,252-222-3244,34.7401,-76.8044
1136,MORGANTON HEIGHTS,C138 MORGANTON HEIGHTS BLVD,MORGANTON,NC,28655,US,828-433-8332,35.725979888262,-81.6996865497951
214,PINEVILLE,9600 PINEVILLE-MATTHEWS ROAD,PINEVILLE,NC,28134,US,704-540-4750,35.088,-80.8803
208,TRIANGLE TOWN CENTER,3630 SUMNER BLVD,RALEIGH,NC,27616,US,919-792-9090,35.8627,-78.5762
209,BRIER CREEK COMMONS,"8021 BRIER CREEK PARKWAY, SUITE 100",RALEIGH,NC,27617,US,919-806-5153,35.91,-78.7806
1191,SHOPPES AT SUMMIT PARK,"125 TINGLE DRIVE, SUITE 300",SALISBURY,NC,28146,US,704-212-2482,35.628717,-80.491407
1144,,6810 PARKER FARM DRIVE,WILMINGTON,NC,28405,US,910-208-4437,34.234300619373,-77.831577815151
202,WILMINGTON TOWN CENTER,816 SOUTH COLLEGE ROAD,WILMINGTON,NC,28403,US,910-793-1904,34.221,-77.8857
199,HANES MALL,164 HANES MALL CIRCLE,WINSTON SALEM,NC,27103,US,336-659-3557,36.0663,-80.304
1160,HAY CREEK SHOPS,1451 EAST LASALLE DRIVE,BISMARCK,ND,58503,US,701-989-7908,46.860148,-100.767523
1241,NORTHWEST COMMONS,"2250 N WEBB ROAD, SUITE 200",GRAND ISLAND,NE,68803,US,308-392-3226,40.943745,-98.381574
1244,GATEWAY MALL,6100 O STREET,LINCOLN,NE,68510,US,402-853-5113,40.81494,-96.635103
449,WESTROADS MALL,9901 NICHOLAS STREET,OMAHA,NE,68114,US,402-951-4400,41.2675,-96.0678
398,SHADOW LAKE TOWNE CENTER,7403 TOWN CENTER PARKWAY,PAPILLION,NE,68046,US,402-592-1642,41.1331,-96.0267
271,PATRIOT PLACE,295 LOUDON ROAD,CONCORD,NH,03301,US,603-224-1564,43.227,-71.4866
222,MONADNOCK MARKETPLACE,42 ASH BROOK ROAD,KEENE,NH,03431,US,603-357-0861,42.9282,-72.3028
616,PHEASANT LANE MALL,310 DANIEL WEBSTER HIGHWAY,NASHUA,NH,03060,US,603-888-3579,42.7019,-71.4385
234,THE CROSSINGS AT FOXRUN,45 GOSLING ROAD,PORTSMOUTH,NH,03801,US,603-431-8036,43.0937,-70.8025
1135,THE MALL AT ROCKINGHAM PARK,77 ROCKINGHAM BLVD.,SALEM,NH,03079,US,603-824-3152,42.769618,-71.23166
1125,SEABROOK TOWN CENTER,"700 LAFAYETTE ROAD, SUITE 212",SEABROOK,NH,03874,US,603-760-7369,42.8925474529976,-70.866524862778
272,BRICK 70 PLAZA,487 ROUTE 70,BRICK,NJ,08723,US,732-477-4844,40.055,-74.1549
87,TOWNE CROSSING SHOPPING CENTER,"2703 RT. 541, SUITE 4",BURLINGTON TWP,NJ,08016,US,609-747-0400,40.0369,-74.8233
260,MARKET PLACE AT GARDEN STATE PARK,2130 ROUTE 70 WEST,CHERRY HILL,NJ,08002,US,856-317-8394,39.9234,-75.0366
86,DEPTFORD,399 ALMONESSON ROAD,DEPTFORD,NJ,08096,US,856-384-8533,39.8301,-75.1026
148,EAST BRUNSWICK,325 STATE ROUTE 18,EAST BRUNSWICK,NJ,08816,US,732-651-3284,40.4555,-74.4021
157,EAST HANOVER,240 ROUTE 10 WEST,EAST HANOVER,NJ,07936,US,973-428-0889,40.8092,-74.3722
426,FREEHOLD RACEWAY MALL,650 TROTTER&#39;S WAY,FREEHOLD,NJ,07728,US,732-358-1400,40.252,-74.2966
719,STAFFORD PARK,223 STAFFORD PARK BLVD.,MANAHAWKIN,NJ,08050,US,609-597-5396,39.7087,-74.2852
85,WRANGLEBOROUGH CONSUMER SQUARE,210 CONSUMER SQUARE,MAYS LANDING,NJ,08330,US,609-407-1711,39.4509,-74.6295
82,EAST GATE SQUARE,1300 NIXON DRIVE,MT LAUREL,NJ,08054,US,856-802-1225,39.9397,-74.9594
672,PARAMUS TOWNE SQUARE,"240 ROUTE 17, NORTH",PARAMUS,NJ,07652,US,201-261-2926,40.935,-74.0678
105,NASSAU PARK PAVILION,530 NASSAU PARK BLVD,PRINCETON,NJ,08540,US,609-419-1661,40.3059,-74.6796
196,ROCKAWAY PLAZA,387 MOUNT HOPE AVENUE,ROCKAWAY,NJ,07866,US,973-659-1950,40.9067,-74.5597
1108,HADLEY CENTER,4999 STELTON ROAD,SOUTH PLAINFIELD,NJ,07080,US,908-226-4912,40.550172,-74.425678
1032,ROUTE 22 RETAIL CENTER,2700A ROUTE 22 EAST,UNION,NJ,07083,US,908-964-2580,40.6871,-74.3107
1302,CUMBERLAND MALL,"3849 S DELSEA DRIVE, SPACE G0000",VINELAND,NJ,08360,US,856-776-7630,39.43,-75.038
319,WAYNE TOWNE CENTER,76 WILLOWBROOK BLVD,WAYNE,NJ,07470,US,973-200-8077,40.8886,-74.2536
450,WOODBRIDGE CENTER,366 WOODBRIDGE CENTER DRIVE,WOODBRIDGE,NJ,07095,US,732-621-8400,40.5554,-74.2983
1116,CORONADO CENTER,"6600 MENAUL BLVD. NE, SUITE 2000-1",ALBUQUERQUE,NM,87110,US,505-884-4415,35.106585,-106.575485
1034,COTTONWOOD PLACE,3550 STATE HIGHWAY 528 NW,ALBUQUERQUE,NM,87114,US,505-899-0355,35.2054,-106.653
1271,FARMINGTON PAVILION,5050 MAIN STREET,FARMINGTON,NM,87402,US,505-793-8034,36.7667,-108.149
1076,LAS CRUCES,200 NORTH TELSHOR BLVD.,LAS CRUCES,NM,88011,US,575-522-9756,32.3198,-106.747
440,GALLERIA AT SUNSET,1308 WEST SUNSET ROAD,HENDERSON,NV,89014,US,702-855-5000,36.0679,-115.041
1266,FASHION SHOW MALL,"3200 LAS VEGAS BLVD, SUITE D700",LAS VEGAS,NV,89109,US,702-479-1266,36.127,-115.17
1215,MEADOWOOD MALL,5354 MEADOWOOD MALL CIRCLE,RENO,NV,89502,US,775-636-7838,39.473,-119.783
667,CROSSGATES MALL,1 CROSSGATES MALL ROAD,ALBANY,NY,12203,US,518-218-7410,42.69,-73.8535
1237,BOULEVARD MALL,640 ALBERTA DRIVE,AMHERST,NY,14226,US,716-242-6903,42.9868,-78.8193
705,FINGERLAKES CROSSING,1620 CLARK STREET ROAD,AUBURN,NY,13021,US,315-258-3750,42.9248,-76.6088
1137,TOWNE CENTER AT BATAVIA,4180 VETERANS MEMORIAL DRIVE,BATAVIA,NY,14020,US,585-344-7150,43.0133496699494,-78.2039176298671
1318,BAY SHORE MALL - SUITE A,1701 SUNRISE HIGHWAY,BAY SHORE,NY,11706,US,631-892-8242,40.736954,-73.243908
01,BINGHAMTON,347 COURT ST.,BINGHAMTON,NY,13904,US,607-724-4361,42.1048,-75.89
422,WALDEN GALLERIA,2 WALDEN GALLERIA,BUFFALO,NY,14225,US,716-651-0600,42.9138,-78.764
04,GREAT NORTHERN MALL,4081 STATE HIGHWAY 31,CLAY,NY,13041,US,315-652-7674,43.1885,-76.2274
1060,COMMACK SHOPPING CENTER,6070 JERICHO TURNPIKE,COMMACK,NY,11725,US,631-499-1410,40.8406,-73.3063
1243,ERIE CANAL CENTRE,3469 ERIE BLVD. EAST - SPACE 1,DEWITT,NY,13214,US,315-802-0005,43.04443,-76.066123
464,ROOSEVELT FIELD,630 OLD COUNTRY ROAD,GARDEN CITY,NY,11530,US,516-247-6400,40.7386,-73.6125
1406,WOODHAVEN,73-25 WOODHAVEN BOULEVARD,GLENDALE,NY,11385,US,347-396-9636,40.71014,-73.858315
782,SOUTHERN TIER CROSSING,1216 COUNTY ROUTE 64,HORSEHEADS,NY,14845,US,607-796-0850,42.1583,-76.8529
156,PYRAMID MALL,40 CATHERWOOD ROAD,ITHACA,NY,14850,US,607-257-5077,42.4821,-76.4898
154,HUDSON VALLEY MALL,"1300 ULSTER AVE., SUITE 127",KINGSTON,NY,12401,US,845-382-2151,41.9678,-73.9849
262,SMITH HAVEN MALL,620 SMITH HAVEN MALL,LAKE GROVE,NY,11755,US,631-265-2987,40.8642,-73.1338
4611,LATHAM FARMS,"579 TROY SCHENECTADY ROAD #101, SUITE A",LATHAM,NY,12110,US,518-213-3478,42.752953,-73.763981
1317,SUNRISE MALL,1188 SUNRISE MALL,MASSAPEQUA,NY,11758,US,516-710-7088,40.68143,-73.43332
4605,MELVILLE MALL,870 WALT WHITMAN ROAD,MELVILLE,NY,11747,US,631-421-3028,40.799,-73.41
15,CRYSTAL RUN GALLERIA,"1 N. GALLERIA DRIVE, SUITE 132",MIDDLETOWN,NY,10941,US,845-692-5035,41.4523,-74.3684
756,SANGERTOWN SQUARE,ROUTE 5 AND 5A,NEW HARTFORD,NY,13413,US,315-798-9626,43.0823,-75.314
1085,SOUTHSIDE MALL,"5006 STATE HIGHWAY 23, SUITE 1C",ONEONTA,NY,13820,US,607-432-0203,42.4469,-75.0466
689,QUAKER CROSSING,3434 AMELIA DRIVE,ORCHARD PARK,NY,14127,US,716-821-1616,42.7925,-78.7867
1185,GATEWAY CENTER II,499-64 SUNRISE HIGHWAY,PATCHOGUE,NY,11772,US,631-891-4044,40.77863,-73.04027134
159,CHAMPLAIN CENTRE NORTH,60 SMITHFIELD BLVD,PLATTSBURGH,NY,12901,US,518-562-1121,44.7031,-73.4906
16,POUGHKEEPSIE GALLERIA,2001 SOUTH RD,POUGHKEEPSIE,NY,12601,US,845-297-4767,41.6253,-73.9216
164,AVIATION MALL,"578 AVIATION ROAD, SPACE D-103",QUEENSBURY,NY,12804,US,518-743-8790,43.3263,-73.6789
1095,OLD COUNTRY ROAD 58 CENTER,1779 OLD COUNTRY ROAD,RIVERHEAD,NY,11901,US,631-727-1395,40.922312,-72.702162
06,THE MALL AT GREECE RIDGE,304 GREECE RIDGE CENTER,ROCHESTER,NY,14626,US,585-227-3730,43.2049,-77.6938
427,MARKETPLACE MALL,305 MIRACLE MILE DRIVE,ROCHESTER,NY,14623,US,585-697-7400,43.0826,-77.6351
22,WILTON MALL AT SARATOGA,3065 RT. 50,SARATOGA SPRINGS,NY,12866,US,518-583-7218,43.1036,-73.7374
626,SHOPS ON RICHMOND AVENUE,2505 RICHMOND AVENUE,STATEN ISLAND,NY,10314,US,718-982-7260,40.5865,-74.1674
1046,DESTINY USA,10311 DESTINY USA DRIVE,SYRACUSE,NY,13204,US,315-471-7770,43.067,-76.1721
1221,GREEN ACRES COMMONS,7 GREEN ACRES COMMONS,VALLEY STREAM,NY,11582,US,516-256-8722,40.66263,-73.7226
02,TOWN SQUARE MALL,2433 VESTAL PKWY EAST,VESTAL,NY,13850,US,607-797-5220,42.0983,-76.0087
28,COBBLESTONE COURT,20 COBBLESTONE COURT DRIVE,VICTOR,NY,14564,US,585-223-1530,43.0306,-77.4379
158,SALMON RUN MALL,21143 SALMON RUN LOOP WEST,WATERTOWN,NY,13601,US,315-786-8681,43.9793,-75.9531
195,TOWNE CENTER AT WEBSTER,1062 RIDGE ROAD,WEBSTER,NY,14580,US,585-872-1080,43.2111,-77.4492
1083,PALISADES CENTER,2400 PALISADES CENTER DRIVE,WEST NYACK,NY,10994,US,845-353-1086,41.0967,-73.9574
690,THE SOURCE,1 MAPLE AVENUE,WHITE PLAINS,NY,10605,US,914-328-3487,41.0292,-73.7589
14,EASTGATE PLAZA,5105 TRANSIT RD,WILLIAMSVILLE,NY,14221,US,716-565-0417,42.9865,-78.6939
628,RIDGE HILL,45 FITZGERALD STREET,YONKERS,NY,10710,US,914-964-0580,40.9666,-73.8574
1199,JEFFERSON VALLEY MALL,650 LEE BOULEVARD,YORKTOWN HEIGHTS,NY,10598,US,914-302-5452,41.329,-73.808
1119,THE PLAZA AT CHAPEL HILL,498 HOWE AVE,AKRON,OH,44221,US,330-923-8224,41.1166093830349,-81.4770132385824
63,MARKET SQUARE AT MONTROSE,4036 MEDINA ROAD,AKRON,OH,44333,US,330-668-1231,41.1357,-81.6418
121,BAINBRIDGE SHOPPING CENTER,7305 MARKETPLACE DRIVE,AURORA,OH,44202,US,330-562-4200,41.3495,-81.3881
278,MALL AT FAIRFIELD COMMONS,"2727 FAIRFIELD COMMONS, UNIT 6",BEAVERCREEK,OH,45431,US,937-426-2955,39.7663,-84.0567
686,APPLEWOOD COMMONS,550 BOARDMAN-POLAND ROAD,BOARDMAN,OH,44514,US,330-629-6871,41.025288,-80.645227
64,BELDEN PARKE CROSSINGS,5544 N.W. DRESSLER ROAD,CANTON,OH,44720,US,330-966-0990,40.8613,-81.4322
1218,GUERNSEY CROSSING,1251 N BRIDGE STREET,CHILLICOTHE,OH,45601,US,740-772-2424,39.361513,-82.974679
1260,COLERAIN TOWNE CENTER,10180 COLERAIN AVENUE,CINCINNATI,OH,45251,US,513-370-5022,39.261156,-84.601315
71,EASTGATE PAVILION,650 EASTGATE SOUTH DRIVE,CINCINNATI,OH,45245,US,513-752-5525,39.0952,-84.2755
1281,SYCAMORE PLAZA,"7800 MONTGOMERY ROAD, UNIT 275",CINCINNATI,OH,45236,US,513-370-5024,39.201,-84.377
74,WESTERN HILLS MARKET PLACE,5555 GLENWAY AVENUE,CINCINNATI,OH,45238,US,513-347-7570,39.1321,-84.6118
4610,EASTON TOWN CENTER,4304 EASTON GATEWAY DRIVE,COLUMBUS,OH,43219,US,614-472-4759,40.054859,-82.904605
4600,POLARIS FASHION PLACE,"1510 POLARIS PARKWAY, SUITE A",COLUMBUS,OH,43240,US,614-410-0018,40.147007,-82.980228
1045,DAYTON MALL,"2700 MIAMISBURG CENTERVILLE ROAD, SUITE 388",DAYTON,OH,45459,US,937-436-5754,39.6332,-84.2189
405,DUBLIN,6111 SAWMILL ROAD,DUBLIN,OH,43017,US,614-798-1111,40.0907,-83.0943
106,MIDWAY MARKET SQUARE,360 MARKET DR,ELYRIA,OH,44035,US,440-324-4100,41.3907,-82.1101
1138,HOBBY LOBBY PLAZA,1960 TIFFIN AVENUE,FINDLAY,OH,45840,US,419-423-5830,41.0552098068853,-83.6082534442332
291,PARKWAY CENTRE,1656 STRINGTOWN ROAD,GROVE CITY,OH,43123,US,614-801-1033,39.8807,-83.0396
241,BRIDGEWATER FALLS,3363 PRINCETON ROAD,HAMILTON,OH,45011,US,513-892-4302,39.3888,-84.5047
1021,INDIAN MOUND MALL,771 SOUTH 30TH STREET,HEATH,OH,43056,US,740-522-5555,40.0298,-82.448
329,TANGLEWOOD PLAZA,1825 HILLIARD-ROME ROAD,HILLIARD,OH,43026,US,614-777-1396,39.9888,-83.1543
48,SPRING MEADOW,1407 SPRING MEADOW DRIVE,HOLLAND,OH,43528,US,419-867-0810,41.6156,-83.696
384,NORTH HEIGHTS PLAZA,8220 OLD TROY PIKE,HUBER HEIGHTS,OH,45424,US,937-237-1900,39.8744,-84.1336
604,RIVER VALLEY MALL,1500 RIVER VALLEY CIRCLE,LANCASTER,OH,43130,US,740-654-6215,39.7319,-82.6262
1183,LIBERTY CENTER,7675 WAREHOUSE ROW,LIBERTY TOWNSHIP,OH,45069,US,513-712-9048,39.372452,-84.369052
434,LEGACY VILLAGE,24545 CEDAR ROAD,LYNDHURST,OH,44124,US,216-706-9400,41.504,-81.5043
173,DEERFIELD TOWN CENTER,5700 DEERFIELD BOULEVARD,MASON,OH,45040,US,513-770-4070,39.3088,-84.3165
1118,GREAT LAKES MALL,"7850 MENTOR AVE, SUITE 1044",MENTOR,OH,44060,US,440-299-6005,41.658732,-81.360728
1315,NEW TOWNE MALL,"400 MILL AVE SE, SUITE C1",NEW PHILADELPHIA,OH,44663,US,330-556-5296,40.48,-81.44
174,ROMAR PLAZA,5809 YOUNGSTOWN-WARREN ROAD,NILES,OH,44446,US,330-505-9233,41.2099,-80.7465
468,GREAT NORTHERN MALL,200 GREAT NORTHERN MALL,NORTH OLMSTED,OH,44070,US,440-686-2400,41.4179,-81.9065
66,ONTARIO TOWNE CENTER,2235 WALKER LAKE ROAD,ONTARIO,OH,44903,US,419-747-2727,40.7878,-82.5952
1171,THE SHOPPES AT PARMA,8113 W RIDGEWOOD DRIVE,PARMA,OH,44129,US,440-345-3035,41.382178,-81.743378
727,SANDUSKY PAVILLION,4020 MILAN ROAD (RTE. 250),SANDUSKY,OH,44870,US,419-621-1660,41.4207,-82.6738
1219,BECHTLE CROSSING,1690 N BECHTLE AVENUE,SPRINGFIELD,OH,45504,US,937-523-0027,39.947,-83.832
233,FORT STEUBEN MALL,100 MALL DRIVE,STEUBENVILLE,OH,43952,US,740-266-6323,40.3668,-80.671
193,WESTFIELD SHOPPINGTOWN SOUTH PARK,17071 SOUTHPARK CENTER,STRONGSVILLE,OH,44136,US,440-268-9153,41.3079,-81.8184
232,WESTFIELD SHOPPINGTOWN FRANKLIN PARK,5001 MONROE STREET,TOLEDO,OH,43623,US,419-474-0170,41.693,-83.6417
170,CROCKER PARK,300 CROCKER PARK BLVD,WESTLAKE,OH,44145,US,440-835-3723,41.4592,-81.9543
1236,WAYNE TOWN CENTER,4027 BURBANK ROAD,WOOSTER,OH,44691,US,330-234-5183,40.850016,-81.944452
1022,SHOPS AT BROKEN ARROW,1620 E. HILLSIDE DRIVE,BROKEN ARROW,OK,74012,US,918-355-3310,36.0675,-95.7729
1109,LAWTON TOWN CENTER,261 NW 2ND STREET,LAWTON,OK,73501,US,580-350-3079,34.6121695424386,-98.3879636766904
1082,TOWN CENTER PLAZA,7095 SE 29TH STREET,MIDWEST CITY,OK,73110,US,405-732-0820,35.4378,-97.4048
1080,FRITTS FARM,760 SW 19TH STREET,MOORE,OK,73160,US,405-237-1585,35.3177,-97.5013
1079,SHOPS AT QUAIL SPRING,14200 N. PENNSYLVANIA AVENUE,OKLAHOMA CITY,OK,73134,US,405-749-4610,35.6148,-97.548
1081,WESTGATE MARKETPLACE,6601 SW 3RD STREET,OKLAHOMA CITY,OK,73128,US,405-491-2570,35.4633,-97.6298
1000,TULSA HILLS SHOPPING CENTER,7523 S. OLYMPIA AVENUE,TULSA,OK,74132,US,918-447-1100,36.0538,-96.002
1001,SOLLCO UNION PLAZA,10021 E 71ST STREET,TULSA,OK,74133,US,918-249-4444,36.0614,-95.8652
676,CASCADE VILLAGE SHOPPING CENTER,"63455 N HIGHWAY 97, SUITE 8",BEND,OR,97701,US,541-317-4820,44.1002,-121.303
679,JOHNSON CREEK CROSSING,9600 SE 82ND STREET,CLACKAMAS,OR,97086,US,503-788-7616,45.454,-122.577
673,DELTA OAKS,1030 GREENACRES ROAD,EUGENE,OR,97408,US,541-344-9622,44.0911,-123.096
677,GRESHAM TOWN FAIR,700 NW EASTMAN PARKWAY,GRESHAM,OR,97030,US,503-667-1950,45.5025,-122.434
670,CROSSROADS SHOPPING CENTER,7280 NW BUTLER STREET,HILLSBORO,OR,97124,US,503-547-2904,45.5352,-122.905
675,MERIDIAN SQUARE,17799 LOWER BOONES FERRY ROAD,LAKE OSWEGO,OR,97035,US,503-635-3800,45.3984,-122.743
4616,NORTHGATE MARKETPLACE,293 ROSSANLEY DRIVE - SUITE A,MEDFORD,OR,97501,US,541-930-3254,42.342,-122.886
678,HAYDEN MEADOWS SQUARE,1140 N. HAYDEN MEADOWS DRIVE,PORTLAND,OR,97217,US,503-285-5040,45.5941,-122.677
674,SALEM,275 LANCASTER DRIVE,SALEM,OR,97301,US,503-363-4860,44.9308,-122.985
342,WASHINGTON SQUARE,9402 SW WASHINGTON SQUARE ROAD,TIGARD,OR,97223,US,503-598-3081,45.4519,-122.78
1169,HAMILTON CROSSING,"707 NORTH KROCKS RD, SUITE 101",ALLENTOWN,PA,18106,US,484-866-9428,40.566398,-75.561625
97,LOGAN TOWN CENTER,149 FALON LANE,ALTOONA,PA,16602,US,814-941-2273,40.487,-78.3841
1209,GREENWOOD PLAZA,400 GREENWOOD PLAZA,BUTLER,PA,16001,US,(724) 234-3505,40.879485,-79.950971
1333,CAPITAL CITY MALL,3595 CAPITAL CITY MALL DRIVE,CAMP HILL,PA,17011,US,717-265-0312,40.221971,-76.9344379
1197,FRANKLIN CENTER,1320 LINCOLN WAY E - UNIT 1,CHAMBERSBURG,PA,17202,US,717-446-8115,39.925644,-77.631052
310,PROVIDENCE TOWN CENTER,400 FRONT STREET,COLLEGEVILLE,PA,19426,US,610-409-9790,40.1639,-75.4796
1012,CRANBERRY CROSSROADS,2021 MACKENZIE WAY,CRANBERRY TWP.,PA,16066,US,724-778-3010,40.6876,-80.0876
83,BRANDYWINE SQUARE,1026 E. LANCASTER AVENUE,DOWNINGTOWN,PA,19335,US,610-518-5200,40.0162,-75.6796
230,THE VILLAGE AT SOUTHMONT CENTER,4423 BIRKLAND PLACE,EASTON,PA,18045,US,610-330-0383,40.6575,-75.2865
30,MILLCREEK PAVILION,2088 INTERCHANGE RD,ERIE,PA,16565,US,814-864-3500,42.07,-80.1044
81,COURT AT OXFORD VALLEY,150 COMMERCE BLVD.,FAIRLESS HILLS,PA,19030,US,215-946-8750,40.1807,-74.8697
110,HEMPFIELD POINTE PLAZA,"RR 17, BOX 18",GREENSBURG,PA,15601,US,724-522-9777,40.3106,-79.5965
252,WESTMORELAND MALL,5289 ROUTE 30,GREENSBURG,PA,15601,US,724-853-1752,40.2975,-79.5061
382,NORTH HANOVER MALL,1155 CARLISLE STREET,HANOVER,PA,17331,US,717-632-9362,39.8221,-76.9954
39,COLONIAL COMMONS,5086 JONESTOWN RD,HARRISBURG,PA,17112,US,717-652-3174,40.3122,-76.8058
129,THE WATERFRONT,350 EAST WATERFRONT DRIVE,HOMESTEAD,PA,15120,US,412-476-9940,40.4101,-79.9111
1110,KING OF PRUSSIA MALL,"160 N GULPH ROAD, SUITE 4000",KING OF PRUSSIA,PA,19406,US,484-751-0071,40.0875,-75.3942
1294,SHOPPES AT BELMONT,1587 FRUITVILLE PIKE,LANCASTER,PA,17601,US,(717) 406-1010,40.067161,-76.311267
1142,MCCANDLESS CROSSING,830 PROVIDENCE BOULEVARD,MCCANDLESS,PA,15237,US,412-548-0012,40.5691333410805,-80.0196676673149
328,BEAVER VALLEY MALL,675 ROUTE 18,MONACA,PA,15061,US,724-770-9081,40.6755,-80.313
1107,MONROEVILLE MALL,501 MONROEVILLE MALL,MONROEVILLE,PA,15146,US,412-843-0024,40.429465,-79.797445
341,MONTGOMERY MALL,113 MONTGOMERY MALL,NORTH WALES,PA,19454,US,215-368-2186,40.2358,-75.2458
80,LIBERTY PLAZA,20 FRANKLIN MILLS BLVD.,PHILADELPHIA,PA,19154,US,215-637-3230,40.0855,-74.9675
42,ROBINSON TOWN CENTRE,5000 ROBINSON CENTRE DRIVE,PITTSBURGH,PA,15205,US,412-787-1330,40.4532,-80.1564
638,SOUTH HILLS VILLAGE,"301 SOUTH HILLS VILLAGE DRIVE, SUITE #201",PITTSBURGH,PA,15241,US,412-831-5570,40.3438,-80.0574
99,THE METROPLEX,2430 CHEMICAL ROAD,PLYMOUTH MEETING,PA,19462,US,610-260-4400,40.1056,-75.2936
229,COVENTRY MALL,ROUTE 724 AND ROUTE 100,POTTSTOWN,PA,19465,US,610-323-7100,40.2368,-75.6609
23,BROADCASTING SQUARE,"2767 PAPER MILL ROAD, SPACE F",READING,PA,19610,US,610-373-7366,40.3595,-75.9827
4618,VIEWMONT MALL,440 VIEWMONT MALL,SCRANTON,PA,18508,US,570-483-3442,41.45824428,-75.65571522
389,MONROE COMMONS,486 MARTKETPLACE,SELINSGROVE,PA,17870,US,570-743-1780,40.8434,-76.8368
112,THE COLONNADE AT STATE COLLEGE,325 LOWES BLVD,STATE COLLEGE,PA,16803,US,814-861-1350,40.8125,-77.9073
1127,BARTONSVILLE SQUARE,500 COMMERCE BLVD,STROUDSBURG,PA,18360,US,570-421-7501,40.998599,-75.265962
188,GALLERIA AT PITTSBURGH MILLS,329 PITTSBURGH MILLS CIRCLE,TARENTUM,PA,15084,US,724-274-0240,40.5726,-79.7933
1233,FAYETTE CROSSING,320 WALMART DRIVE,UNIONTOWN,PA,15401,US,724-415-3460,39.91689,-79.754974
24,STRABANE SQUARE,347 WASHINGTON ROAD,WASHINGTON,PA,15301,US,724-229-7556,40.1893,-80.2265
242,CENTURY I I I MALL,"3075 CLAIRTON ROAD, SPACE 800",WEST MIFFLIN,PA,15123,US,412-650-0132,40.3369,-79.943
171,ALLENTOWN,2631 MACARTHER ROAD,WHITEHALL,PA,18052,US,610-231-0691,40.647,-75.4908
07,ARENA HUB PLAZA,479 ARENA HUB PLAZA,WILKES-BARRE,PA,18702,US,570-823-8288,41.2391,-75.8403
277,LYCOMING MALL,300 LYCOMING MALL CIRCLE,WILLIAMSPORT,PA,17756,US,570-546-2625,41.239,-76.8259
98,PLAZA AT WILLOW GROVE,2510 MORELAND RD,WILLOW GROVE,PA,19090,US,215-657-8977,40.1423,-75.1207
274,YORK TOWN CENTER,2925 CONCORD ROAD,YORK,PA,17402,US,717-751-4450,39.9845,-76.6673
31,MARKET SQUARE,RT. 30 &amp; KENNETH ROAD,YORK,PA,17404,US,717-848-1696,39.9746,-76.7625
163,THE CROSSING AT SMITHFIELD,"371 PUTNAM PIKE, SUITE 300",SMITHFIELD,RI,02917,US,401-232-0051,41.875,-71.5168
1307,RHODE ISLAND MALL,650 BALD HILL ROAD,WARWICK,RI,02886,US,(401) 773-9008,41.71930937,-71.48037426
780,MIDTOWN PARK,140 FRITZ DRIVE,ANDERSON,SC,29621,US,864-225-7252,34.5516,-82.6745
1067,BLUFFTON TARGET CENTER,"1050 FORDING ISLAND ROAD, SUITE B",BLUFFTON,SC,29910,US,843-815-3000,32.255,-80.8509
221,CITADEL MALL,2070 SAM RITTENBURG BLVD.,CHARLESTON,SC,29407,US,843-573-0891,32.8013,-80.0307
204,COLUMBIANA STATION SHOPPING CENTER,1110 BOWER PARKWAY,COLUMBIA,SC,29212,US,803-749-0756,34.068,-81.1594
1015,TARGET CENTER,10204A TWO NOTCH ROAD,COLUMBIA,SC,29229,US,803-699-8380,34.1184,-80.88
323,MAGNOLIA MALL,"DAVID MCLEOD BLVD, SUITE 1500",FLORENCE,SC,29501,US,843-413-1321,34.192,-79.8322
220,THE SHOPS AT GREENRIDGE,1125 WOODRUFF ROAD,GREENVILLE,SC,29607,US,864-284-6199,34.83,-82.2998
1200,KMART CENTER,1114 BOWMAN ROAD,MT PLEASANT,SC,29464,US,843-800-3032,32.812125,-79.852181
191,MALL OF SOUTH CAROLINA,600 COSTAL GRAND CIRCLE,MYRTLE BEACH,SC,29577,US,843-916-9148,33.7029,-78.9242
1139,COASTAL NORTH TOWN CENTER,1536 HIGHWAY 17 NORTH,NORTH MYRTLE BEACH,SC,29582,US,843-213-2103,33.840626748997,-78.65715709898
692,MANCHESTER VILLAGE,548 JOHN ROSS PARKWAY,ROCK HILL,SC,29730,US,803-324-2393,34.9428,-80.977
190,WESTGATE PLAZA,"205 WEST BLACKSTOCK ROAD, SUITE 960",SPARTANBURG,SC,29301,US,864-595-9455,34.9395,-81.9944
324,AZALEA SQUARE,355 AZALEA SQ. BLVD.,SUMMERVILLE,SC,29483,US,843-873-4065,33.038,-80.1614
1124,EMPIRE MALL,1080 W EMPIRE MALL,SIOUX FALLS,SD,57106,US,605-362-6550,43.51076,-96.774622
760,HAMILTON CROSSING,221 HAMITLON CROSSING DRIVE,ALCOA,TN,37701,US,865-379-1480,35.7694,-83.9854
1222,THE PINNACLE,434 PINNACLE PARKWAY,BRISTOL,TN,37620,US,423-217-6696,36.591865,-82.255493
126,HAMILTON VILLAGE,"2020 GUNBARREL ROAD, SUTIE 182",CHATTANOOGA,TN,37421,US,423-892-3122,35.0317,-85.1505
683,GOVERNOR&#39;S SQUARE,"2801 WILMA RUDOLPH BLVD, UNIT 195",CLARKSVILLE,TN,37040,US,931-645-2255,36.589,-87.2877
375,COUNTRYWOOD CROSSINGS,2393 N. GERMANTOWN PARKWAY,CORDOVA,TN,38016,US,901-386-5302,35.1907,-89.7962
285,COOL SPRINGS MARKET,"2000 MALORY LANE, SUITE 270",FRANKLIN,TN,37067,US,615-778-0595,35.9493,-86.8155
704,THE COLUMNS,1165 VANN DRIVE,JACKSON,TN,38305,US,731-660-4344,35.665,-88.8616
331,MALL AT JOHNSON CITY,2011 NORTH ROAD STREET,JOHNSON CITY,TN,37601,US,423-282-4430,36.3392,-82.3779
721,KINGSPORT PAVILION,2626 EAST STONE DRIVE,KINGSPORT,TN,37660,US,423-245-3412,36.5529,-82.4916
125,THE COMMONS,221 NORTH PETERS ROAD,KNOXVILLE,TN,37923,US,865-531-2221,35.9152,-84.084
327,NORTHSIDE MARKETPLACE,2305 GALLATIN PIKE,MADISON,TN,37115,US,615-855-1443,36.3066,-86.6822
376,CENTENNIAL COMMONS,766 POLO GROUNDS BLVD,MEMPHIS,TN,38125,US,901-737-2216,35.052,-89.8045
1306,COLLEGE SQUARE MALL,"2550 E MORRIS BLVD, SUITE 9",MORRISTOWN,TN,37813,US,423-438-0444,36.221,-83.262
284,PROVIDENCE MARKET PLACE,"401 SOUTH MT. JULIET ROAD, SUITE 605",MT. JULIET,TN,37122,US,615-773-6160,36.1679,-86.5076
321,THE AVENUE MURFREESBORO,2615 MEDICAL CENTER PARKWAY,MURFREESBORO,TN,37129,US,615-896-8882,35.8603,-86.448
289,NASHVILLE WEST,6812 CHARLOTTE PIKE,NASHVILLE,TN,37209,US,615-354-0102,36.1355,-86.8912
1228,MAIN STREET,369 SOUTH ILLINOIS AVENUE,OAK RIDGE,TN,37830,US,865-294-0792,36.008779,-84.254938
1216,RIVER LANDING,"713 WINFIELD DUNN PARKWAY, #5",SEVIERVILLE,TN,37876,US,865-868-3410,35.8805,-83.57
754,THE VILLAGE AT ALLEN,170 E. STACY ROAD,ALLEN,TX,75002,US,972-678-0650,33.1246,-96.6592
424,PARKS AT ARLINGTON,3891 SOUTH COOPER STREET,ARLINGTON,TX,76015,US,817-987-4800,32.6784,-97.1288
347,DOMAIN CROSSING,3210 KRAMER LANE,AUSTIN,TX,78758,US,512-339-3299,30.3978,-97.7266
755,HILL COUNTRY GALLERIA,3921 MARKET STREET,BEE CAVE,TX,78738,US,512-263-2953,30.3076,-97.9366
1261,SUNRISE MALL,"2370 N EXPRESSWAY, BLDG. F",BROWNSVILLE,TX,78521,US,956-465-2013,25.952203,-97.503827
713,UPTOWN VILLAGE,305 WEST FM 1382,CEDAR HILL,TX,75104,US,972-291-5530,32.6018,-96.9432
4617,THE PARKE,"5001 183A TOLL ROAD, SUITE A",CEDAR PARK,TX,78613,US,512-528-0091,30.530978,-97.8199
1113,THE SHOPS AT LA PALMERA,"4938 SOUTH STAPLES STREET, SUITE A-1",CORPUS CHRISTI,TX,78411,US,361-980-1535,27.70894,-97.3677
387,GALLERIA,13838 DALLAS PARKWAY,DALLAS,TX,75240,US,972-239-5455,32.9353,-96.8208
709,PARK LANE,8030 PARK LANE,DALLAS,TX,75231,US,214-696-5800,32.8706,-96.7685
1062,THE FOUNTAINS AT FARAH,"8889 GATEWAY WEST BLVD, SUITE 110",EL PASO,TX,79925,US,915-633-1120,31.771103,-106.373414
1408,SUNLAND PLAZA,801 SUNLAND PARK DRIVE,EL PASO,TX,79912,US,915-218-5119,31.819,-106.547
1229,GLADE PARKS,"2701 RIO GRANDE BOULEVARD, SUITE 200",EULESS,TX,76039,US,682-292-9315,32.87782,-97.103322
335,THE HIGHLANDS,5801 LONG PRAIRIE ROAD,FLOWER MOUND,TX,75028,US,972-355-1111,33.0658,-97.084
714,ALLIANCE TOWN CENTER,9356 SAGE MEADOW TRAIL,FORT WORTH,TX,76177,US,817-750-1170,32.908852,-97.313426
4607,"BAYBROOK, MALL POWER CENTER EXTENSION - SUITE A",18650 GULF FREEWAY,FRIENDSWOOD,TX,77546,US,832-415-1934,29.55,-95.153
421,STONEBRIAR CENTER,2611 PRESTON ROAD,FRISCO,TX,75034,US,214-618-0200,33.1003,-96.8105
381,FIREWHEEL TOWN CENTER,205 CONEFLOWER DRIVE,GARLAND,TX,75040,US,972-495-3208,32.9513,-96.6139
743,MARKET HEIGHTS,201 EAST CENTRAL TEXAS EXPRESSWAY,HARKER HEIGHTS,TX,76548,US,254-690-4220,31.0735,-97.6686
1325,POST OAK SHOPPING CENTER,2131 POST OAK BOULEVARD,HOUSTON,TX,77056,US,281-840-6019,29.74412847,-95.45999876
1329,WESTLAKE MARKETPLACE,14359 E SAM HOUSTON PKWY,HOUSTON,TX,77044,US,281-677-4483,29.92802435,-95.20606939
1274,WILLOWBROOK MALL,"7925 FM 1960 ROAD W, #9000",HOUSTON,TX,77070,US,281-571-7051,29.96,-95.538
1272,DEERBROOK MALL,"20131 US-59 N, SUITE 700",HUMBLE,TX,77338,US,281-713-9589,30.01,-95.271
349,NORTHEAST MALL,1101 MELBOURNE ROAD,HURST,TX,76053,US,817-590-0740,32.831,-97.1985
770,LAS COLINAS,2000 MARKET PLACE BLVD,IRVING,TX,75063,US,972-402-0600,32.9214,-96.9727
4612,THE SHOPS AT PARK WEST,"24600 KATY FREEWAY, SUITE 1100A",KATY,TX,77494,US,281-712-8152,29.787,-95.792
1292,LONGVIEW MALL,"3500 MCCANN ROAD, SUITE K101",LONGVIEW,TX,75605,US,903-653-1437,32.539,-94.752
1312,TOWN EAST MALL,2063 TOWN EAST MALL,MESQUITE,TX,75150,US,(214) 231-8281,32.80870165,-96.6232905
795,TOWNE CENTER AT CREEKSIDE,303 CREEKSIDE WAY,NEW BRAUNFELS,TX,78130,US,830-629-3100,29.7268,-98.0752
1324,PEARLAND TOWN CENTER,11200 BROADWAY STREET,PEARLAND,TX,77584,US,281-677-4355,29.553553,-95.39244
764,STONE HILL TOWN CENTER,19000 LIMESTONE COMMERCIAL DRIVE,PFLUGERVILLE,TX,78660,US,512-252-2800,30.4711,-97.5971
4622,GATES OF PROSPER,"700 RICHLAND BOULEVARD, SUITE A",PROSPER,TX,75078,US,972-346-5902,33.22291358,-96.79445708
377,THE PLAZA AT ROCKWALL,1005 E. IH30,ROCKWALL,TX,75087,US,972-722-4434,32.9038,-96.4527
717,THE RIM CENTER,18103 RIM DRIVE,SAN ANTONIO,TX,78257,US,210-558-3444,29.6139,-98.6015
718,ALAMO RANCH MARKET,"5503 WEST LOOP, 1604 NORTH",SAN ANTONIO,TX,78253,US,210-680-2288,29.4897,-98.7094
1129,SOUTH PARK MALL,"2310 S.W. MILITARY DRIVE, SUITE #2002",SOUTH SAN ANTONIO,TX,78224,US,210-202-2206,29.3552114969809,-98.5286625304963
1273,FIRST COLONY MALL,"16535 SOUTHWEST FREEWAY, SUITE 9000",SUGAR LAND,TX,77479,US,281-201-0156,29.59,-95.625
1275,WOODLANDS MALL,1201 LAKE WOODLANDS DRIVE,THE WOODLANDS,TX,77380,US,281-475-2836,30.164,-95.454
1338,RICHLAND MALL,"6001 WEST WACO DRIVE, UNIT 316",WACO,TX,76710,US,254-523-3510,31.515914,-97.189742
1285,THE MEADOWS SHOPPING DISTRICT,841 W PACIFIC DRIVE,AMERICAN FORK,UT,84003,US,801-692-6137,40.379594,-111.821674
634,LAYTON HILLS MALL,1201 N HILL FIELD ROAD #1024,LAYTON,UT,84041,US,801-444-6656,41.0776,-111.978
1064,FAMILY CENTER AT FORT UNION,7170 S 1000 E,MIDVALE,UT,84047,US,801-566-2920,40.621,-111.862
1065,FAMILY CENTER AT OREM,130 E UNIVERSITY PARKWAY,OREM,UT,84058,US,801-225-7073,40.2716,-111.692
1007,RED ROCKS COMMONS,"15 SOUTH RIVER RD, SUITE 240",ST. GEORGE,UT,84790,US,435-673-4261,37.1074,-113.553
290,CROSSROADS CENTER,5716 COLUMBIA PIKE,BAILEY&#39;S CROSSROADS,VA,22041,US,703-933-0736,38.8522,-77.1278
4604,5TH STREET STATION,"120 WEGMANS WAY, BUILDING 200, SUITE A",CHARLOTTESVILLE,VA,22902,US,434-270-7117,38.009,-78.5
4608,GREENBRIER SQUARE,"1501 SENTINEL DRIVE, SUITE A",CHESAPEAKE,VA,23320,US,757-386-4274,36.76674,-76.267121
308,RIVER VALLEY MALL,100 NEW RIVER ROAD,CHRISTIANSBURG,VA,24073,US,540-381-0102,37.1645,-80.4283
1093,SOUTHPARK MALL,324 SOUTHPARK CIRCLE,COLONIAL HEIGHTS,VA,23834,US,804-526-2745,37.2548,-77.3946
1148,CULPEPER COLONNADE,15359 MONTANUS DRIVE,CULPEPER,VA,22701,US,540-317-4839,38.4832202181606,-77.9659601116221
320,SMOKE TOWN STATION,13080 WORTH AVENUE,DALE CITY,VA,22192,US,703-491-9432,38.6497,-77.2959
396,COLEMAN MARKETPLACE,145 HOLT GARRISON PARKWAY,DANVILLE,VA,24540,US,434-792-9612,36.5991,-79.4189
283,DULLES TOWN CENTER,21070 DULLES TOWN CIRCLE,DULLES,VA,20166,US,571-434-0046,39.032,-77.4225
413,EAST MARKET,12501 FAIRLAKES CIRCLE,FAIRFAX,VA,22033,US,703-803-0300,38.8573,-77.379
147,SPOTSYLVANIA MALL,"137 SPOTSYLVANIA MALL, UNIT 290",FREDERICKSBURG,VA,22407,US,540-548-1200,38.2928,-77.5115
641,SHOPS AT STONEWALL,8009 STONEWALL SHOPS SQUARE,GAINESVILLE,VA,20155,US,571-248-6261,38.7851,-77.6486
114,THE CREEKS,9940 BROOK ROAD,GLEN ALLEN,VA,23059,US,804-261-1853,37.6704,-77.4647
1028,VALLEY MALL,1925 EAST MARKET STREET,HARRISONBURG,VA,22801,US,540-433-1268,38.4284,-78.845
1226,BATTLEFIELD SHOPPING CENTER,1079 EDWARDS FERRY ROAD,LEESBURG,VA,20176,US,571-707-3344,39.10797,-77.526994
123,WARD&#39;S CROSSING,4026-C WARDS ROAD,LYNCHBURG,VA,24502,US,434-832-5666,37.3473,-79.191
142,BULL RUN PLAZA,10800 SUDLEY MANOR DRIVE,MANASSAS,VA,20109,US,703-257-4300,38.7877,-77.5177
247,PATRICK HENRY MALL,12300 JEFFERSON AVENUE,NEWPORT NEWS,VA,23602,US,757-249-2140,37.1135,-76.4955
102,CHESTERFIELD PLAZA,1520 W. KOGER CENTER BLVD,NORTH CHESTERFIELD,VA,23235,US,804-897-5299,37.515,-77.6109
447,STONY POINT FASHION PARK,9204 STONY POINT PKWY,RICHMOND,VA,23235,US,804-253-0800,37.5484,-77.5726
128,SHORT PUMP TOWN CENTER,"11800 W BROAD STREET, SUITE 1096",RICHMOND,VA,23233,US,804-360-8165,37.6573,-77.6189
127,VALLEY VIEW MALL,1910 VALLEY VIEW BLVD NW,ROANOKE,VA,24012,US,540-265-0861,37.3071,-79.9619
1141,SPRINGFIELD TOWN CENTER,6601 SPRINGFIELD MALL,SPRINGFIELD,VA,22150,US,571-255-6367,38.7734,-77.1739
1173,DULLES LANDING,"24670 DULLES LANDING DRIVE, UNIT 100",STERLING,VA,20166,US,571-367-5120,38.933279,-77.520162
645,HARBOUR VIEW EAST,"6253 COLLEGE DRIVE, SUITE 200",SUFFOLK,VA,23435,US,757-638-2001,36.8801,-76.4288
145,LYNNHAVEN MALL,"701 LYNNHAVEN PARKWAY, SUITE 1001",VIRGINIA BEACH,VA,23452,US,757-463-4379,36.8183,-76.0698
448,TOWN CENTER AT VIRGINIA BEACH,"4621 COLUMBUS STREET, SUITE 100",VIRGINIA BEACH,VA,23462,US,757-493-6400,36.8406,-76.1364
646,HANCOCK VILLAGE,14629 HANCOCK VILLAGE STREET,WEST CHESTERFIELD,VA,23832,US,804-639-1107,37.4009,-77.6761
383,THE MARQUIS,120 GRISTMIL PLAZA,WILLIAMSBURG,VA,23185,US,757-258-3364,37.2554,-76.6407
1206,WINCHESTER PLAZA,1675 SOUTH PLEASANT VALLEY ROAD,WINCHESTER,VA,22601,US,540-431-3487,39.167105,-78.167011
253,GREEN MOUNTAIN PLAZA,320 US ROUTE 7 SOUTH,RUTLAND,VT,05701,US,802-773-2710,43.5852,-72.9706
150,MAPLE TREE PLACE,1355 MAPLE TREE PLACE,WILLISTON,VT,05495,US,802-288-9854,44.4429,-73.1113
1331,CROSSROADS BELLEVUE,15600 NE 8th Street,BELLEVUE,WA,98008,US,425-274-1587,47.621509,-122.131049
1414,BELLIS FAIR MALL,20 BELLIS FAIR PARKWAY,BELLINGHAM,WA,98226,US,360-305-3099,48.78494263,-122.4932744
1192,BURLINGTON,2000 S. BURLINGTON BLVD,BURLINGTON,WA,98233,US,360-419-6072,48.44829,-122.3337075
1036,THE COMMONS,1819 S. COMMONS,FEDERAL WAY,WA,98003,US,206-400-2811,47.31327,-122.3103241
1100,GRANDRIDGE PLAZA,1422 10TH AVE NE,ISSAQUAH,WA,98029,US,425-427-9284,47.541128,-122.016679
1164,SMOKEY POINT TOWN CENTER,2609 172 ST NE,MARYSVILLE,WA,98271,US,360-287-5822,48.1542,-122.195
1240,CAPITAL MALL,625 BLACK LANE BLVD SW,OLYMPIA,WA,98502,US,360-999-5607,47.041,-122.933
671,SOUTH HILLS,"3500 S. MERIDIAN STREET, #600",PUYALLUP,WA,98373,US,253-845-5188,47.1581,-122.296
621,THE LANDING IN RENTON,915 NORTH LANDING WAY,RENTON,WA,98057,US,425-255-3070,47.4961,-122.203
1419,NORTHGATE NORTH,328 NE NORTHGATE WAY,SEATTLE,WA,98125,US,206-962-5894,47.709275,-122.324644
1234,KITSAP MALL,"10315 SILVERDALE WAY NW, SUITE E20",SILVERDALE,WA,98383,US,360-633-2287,47.657,-122.691
1075,SPOKANE VALLEY MALL,14014 EAST INDIANA AVENUE,SPOKANE VALLEY,WA,99216,US,509-891-0977,47.674,-117.212
1263,TACOMA MALL,4502 SOUTH STEELE STREET,TACOMA,WA,98409,US,253-302-8287,47.215469,-122.469664
1332,PARKWAY SUPERCENTER,17450 SOUTHCENTER PARKWAY,TUKWILA,WA,98188,US,206-792-0330,47.446436,-122.259834
1291,RAINIER PLAZA,2500 RUDKIN ROAD,UNION GAP,WA,98903,US,509-654-9111,46.5658,-120.474
109,APPLETON,4350 GREENVILLE DRIVE,APPLETON,WI,54913,US,920-954-9266,44.2751,-88.4718
1208,THE CORRIDOR,"345 DISCOVERY DRIVE, BUILDING E",BROOKFIELD,WI,53045,US,414-455-5370,43.034851,-88.132766
711,GRAFTON COMMONS,1020 PORT WASHINGTON ROAD,GRAFTON,WI,53024,US,262-377-6349,43.3225,-87.9245
380,MAVERICK PHASE II,811 PILGRIM WAY,GREEN BAY,WI,54304,US,920-490-8488,44.4809,-88.0682
1212,JANESVILLE MALL,"2500 MILTON AVENUE, BUILDING A",JANESVILLE,WI,53545,US,608-302-4093,42.713023,-88.998321
753,SHOPS OF PRARIE RIDGE,9899 76TH STREET,KENOSHA,WI,53158,US,262-697-5764,42.564,-87.9293
1187,VALLEY VIEW MALL,4400 WI-16,LA CROSSE,WI,54650,US,608-406-3684,43.872,-91.1925
177,EAST TOWNE MALL,350 EAST TOWNE MALL,MADISON,WI,53704,US,608-241-2764,43.1258,-89.3034
178,WEST TOWNE MALL,237 WEST TOWNE MALL,MADISON,WI,53719,US,608-829-1313,43.0563,-89.5076
131,SOUTHLAND CENTER,2710-B SOUTH GREEN BAY ROAD,MOUNT PLEASANT,WI,53406,US,262-554-8117,42.7002,-87.8556
1230,OSHKOSH,1015 NORTH WASHBURN STREET,OSHKOSH,WI,54904,US,920-252-8271,44.0326,-88.5826
1242,,4600 RIB MOUNTAIN DRIVE,WAUSAU,WI,54401,US,715-241-7403,44.91512,-89.651529
1073,MAYFAIR COLLECTION,"11500 WEST BURLEIGH STREET, SUITE 140",WAUWATOSA,WI,53222,US,414-203-1380,43.07701,-88.056721
4619,HUNTINGTON MALL,"1 MALL ROAD, UNIT 500",BARBOURSVILLE,WV,25504,US,304-733-9720,38.42288122,-82.26791092
144,MEADOWBROOK MALL,"2399 MEADOWBROOK MALL, UNIT #10",BRIDGEPORT,WV,26330,US,304-848-0482,39.3154,-80.274
243,UNIVERSITY TOWNE CENTRE,596 GIANT STREET,GRANVILLE,WV,26501,US,304-598-0554,39.6487,-80.0041
798,THE COMMONS,398 RETAIL COMMONS PARKWAY,MARTINSBURG,WV,25403,US,304-263-1225,39.4378,-77.9937
1011,CROSSROADS MALL,"5475 ROBERT C. BYRD DRIVE, UNIT 6",MT. HOPE,WV,25880,US,304-252-3425,37.8456,-81.1969
108,THE SHOPPES OF TRACE FORK PLAZA,51 R H L BLVD,SOUTH CHARLESTON,WV,25309,US,304-746-6256,38.3357,-81.7116
1122,EASTRIDGE MALL,601 SE WYOMING BLVD,CASPER,WY,82609,US,307-265-4266,42.845408,-106.264273
